{
  "type": "FeatureCollection",
  "features": [
    {
      "type": "Feature",
      "geometry": {
        "type": "Point",
        "coordinates": [
          -45.8,
          13.7
        ]
      },
      "properties": {
        "timestamp": "2017-08-16T06:00:00+00:00",
        "status": "LO",
        "max_wind_kt": 25,
        "label": "Hurricane Harvey (2017)"
      }
    },
    {
      "type": "Feature",
      "geometry": {
        "type": "Point",
        "coordinates": [
          -47.4,
          13.7
        ]
      },
      "properties": {
        "timestamp": "2017-08-16T12:00:00+00:00",
        "status": "LO",
        "max_wind_kt": 25,
        "label": "Hurricane Harvey (2017)"
      }
    },
    {
      "type": "Feature",
      "geometry": {
        "type": "Point",
        "coordinates": [
          -49.0,
          13.6
        ]
      },
      "properties": {
        "timestamp": "2017-08-16T18:00:00+00:00",
        "status": "LO",
        "max_wind_kt": 25,
        "label": "Hurricane Harvey (2017)"
      }
    },
    {
      "type": "Feature",
      "geometry": {
        "type": "Point",
        "coordinates": [
          -50.6,
          13.6
        ]
      },
      "properties": {
        "timestamp": "2017-08-17T00:00:00+00:00",
        "status": "LO",
        "max_wind_kt": 25,
        "label": "Hurricane Harvey (2017)"
      }
    },
    {
      "type": "Feature",
      "geometry": {
        "type": "Point",
        "coordinates": [
          -52.0,
          13.4
        ]
      },
      "properties": {
        "timestamp": "2017-08-17T06:00:00+00:00",
        "status": "TD",
        "max_wind_kt": 25,
        "label": "Hurricane Harvey (2017)"
      }
    },
    {
      "type": "Feature",
      "geometry": {
        "type": "Point",
        "coordinates": [
          -53.4,
          13.1
        ]
      },
      "properties": {
        "timestamp": "2017-08-17T12:00:00+00:00",
        "status": "TD",
        "max_wind_kt": 30,
        "label": "Hurricane Harvey (2017)"
      }
    },
    {
      "type": "Feature",
      "geometry": {
        "type": "Point",
        "coordinates": [
          -55.0,
          13.0
        ]
      },
      "properties": {
        "timestamp": "2017-08-17T18:00:00+00:00",
        "status": "TS",
        "max_wind_kt": 35,
        "label": "Hurricane Harvey (2017)"
      }
    },
    {
      "type": "Feature",
      "geometry": {
        "type": "Point",
        "coordinates": [
          -56.6,
          13.0
        ]
      },
      "properties": {
        "timestamp": "2017-08-18T00:00:00+00:00",
        "status": "TS",
        "max_wind_kt": 40,
        "label": "Hurricane Harvey (2017)"
      }
    },
    {
      "type": "Feature",
      "geometry": {
        "type": "Point",
        "coordinates": [
          -58.4,
          13.0
        ]
      },
      "properties": {
        "timestamp": "2017-08-18T06:00:00+00:00",
        "status": "TS",
        "max_wind_kt": 40,
        "label": "Hurricane Harvey (2017)"
      }
    },
    {
      "type": "Feature",
      "geometry": {
        "type": "Point",
        "coordinates": [
          -59.6,
          13.1
        ]
      },
      "properties": {
        "timestamp": "2017-08-18T10:00:00+00:00",
        "status": "TS",
        "max_wind_kt": 40,
        "label": "Hurricane Harvey (2017)"
      }
    },
    {
      "type": "Feature",
      "geometry": {
        "type": "Point",
        "coordinates": [
          -60.3,
          13.1
        ]
      },
      "properties": {
        "timestamp": "2017-08-18T12:00:00+00:00",
        "status": "TS",
        "max_wind_kt": 40,
        "label": "Hurricane Harvey (2017)"
      }
    },
    {
      "type": "Feature",
      "geometry": {
        "type": "Point",
        "coordinates": [
          -61.2,
          13.2
        ]
      },
      "properties": {
        "timestamp": "2017-08-18T15:00:00+00:00",
        "status": "TS",
        "max_wind_kt": 40,
        "label": "Hurricane Harvey (2017)"
      }
    },
    {
      "type": "Feature",
      "geometry": {
        "type": "Point",
        "coordinates": [
          -62.2,
          13.2
        ]
      },
      "properties": {
        "timestamp": "2017-08-18T18:00:00+00:00",
        "status": "TS",
        "max_wind_kt": 35,
        "label": "Hurricane Harvey (2017)"
      }
    },
    {
      "type": "Feature",
      "geometry": {
        "type": "Point",
        "coordinates": [
          -64.0,
          13.4
        ]
      },
      "properties": {
        "timestamp": "2017-08-19T00:00:00+00:00",
        "status": "TS",
        "max_wind_kt": 35,
        "label": "Hurricane Harvey (2017)"
      }
    },
    {
      "type": "Feature",
      "geometry": {
        "type": "Point",
        "coordinates": [
          -65.7,
          13.5
        ]
      },
      "properties": {
        "timestamp": "2017-08-19T06:00:00+00:00",
        "status": "TS",
        "max_wind_kt": 35,
        "label": "Hurricane Harvey (2017)"
      }
    },
    {
      "type": "Feature",
      "geometry": {
        "type": "Point",
        "coordinates": [
          -67.5,
          13.7
        ]
      },
      "properties": {
        "timestamp": "2017-08-19T12:00:00+00:00",
        "status": "TD",
        "max_wind_kt": 30,
        "label": "Hurricane Harvey (2017)"
      }
    },
    {
      "type": "Feature",
      "geometry": {
        "type": "Point",
        "coordinates": [
          -69.2,
          13.8
        ]
      },
      "properties": {
        "timestamp": "2017-08-19T18:00:00+00:00",
        "status": "WV",
        "max_wind_kt": 30,
        "label": "Hurricane Harvey (2017)"
      }
    },
    {
      "type": "Feature",
      "geometry": {
        "type": "Point",
        "coordinates": [
          -71.0,
          14.0
        ]
      },
      "properties": {
        "timestamp": "2017-08-20T00:00:00+00:00",
        "status": "WV",
        "max_wind_kt": 30,
        "label": "Hurricane Harvey (2017)"
      }
    },
    {
      "type": "Feature",
      "geometry": {
        "type": "Point",
        "coordinates": [
          -72.9,
          14.2
        ]
      },
      "properties": {
        "timestamp": "2017-08-20T06:00:00+00:00",
        "status": "WV",
        "max_wind_kt": 30,
        "label": "Hurricane Harvey (2017)"
      }
    },
    {
      "type": "Feature",
      "geometry": {
        "type": "Point",
        "coordinates": [
          -75.0,
          14.4
        ]
      },
      "properties": {
        "timestamp": "2017-08-20T12:00:00+00:00",
        "status": "WV",
        "max_wind_kt": 30,
        "label": "Hurricane Harvey (2017)"
      }
    },
    {
      "type": "Feature",
      "geometry": {
        "type": "Point",
        "coordinates": [
          -76.8,
          14.7
        ]
      },
      "properties": {
        "timestamp": "2017-08-20T18:00:00+00:00",
        "status": "WV",
        "max_wind_kt": 30,
        "label": "Hurricane Harvey (2017)"
      }
    },
    {
      "type": "Feature",
      "geometry": {
        "type": "Point",
        "coordinates": [
          -78.6,
          15.1
        ]
      },
      "properties": {
        "timestamp": "2017-08-21T00:00:00+00:00",
        "status": "WV",
        "max_wind_kt": 25,
        "label": "Hurricane Harvey (2017)"
      }
    },
    {
      "type": "Feature",
      "geometry": {
        "type": "Point",
        "coordinates": [
          -80.5,
          15.7
        ]
      },
      "properties": {
        "timestamp": "2017-08-21T06:00:00+00:00",
        "status": "WV",
        "max_wind_kt": 25,
        "label": "Hurricane Harvey (2017)"
      }
    },
    {
      "type": "Feature",
      "geometry": {
        "type": "Point",
        "coordinates": [
          -82.5,
          16.4
        ]
      },
      "properties": {
        "timestamp": "2017-08-21T12:00:00+00:00",
        "status": "WV",
        "max_wind_kt": 25,
        "label": "Hurricane Harvey (2017)"
      }
    },
    {
      "type": "Feature",
      "geometry": {
        "type": "Point",
        "coordinates": [
          -84.6,
          17.3
        ]
      },
      "properties": {
        "timestamp": "2017-08-21T18:00:00+00:00",
        "status": "WV",
        "max_wind_kt": 25,
        "label": "Hurricane Harvey (2017)"
      }
    },
    {
      "type": "Feature",
      "geometry": {
        "type": "Point",
        "coordinates": [
          -86.4,
          18.0
        ]
      },
      "properties": {
        "timestamp": "2017-08-22T00:00:00+00:00",
        "status": "WV",
        "max_wind_kt": 25,
        "label": "Hurricane Harvey (2017)"
      }
    },
    {
      "type": "Feature",
      "geometry": {
        "type": "Point",
        "coordinates": [
          -87.8,
          18.6
        ]
      },
      "properties": {
        "timestamp": "2017-08-22T06:00:00+00:00",
        "status": "WV",
        "max_wind_kt": 25,
        "label": "Hurricane Harvey (2017)"
      }
    },
    {
      "type": "Feature",
      "geometry": {
        "type": "Point",
        "coordinates": [
          -88.8,
          19.4
        ]
      },
      "properties": {
        "timestamp": "2017-08-22T12:00:00+00:00",
        "status": "WV",
        "max_wind_kt": 25,
        "label": "Hurricane Harvey (2017)"
      }
    },
    {
      "type": "Feature",
      "geometry": {
        "type": "Point",
        "coordinates": [
          -89.7,
          20.0
        ]
      },
      "properties": {
        "timestamp": "2017-08-22T18:00:00+00:00",
        "status": "LO",
        "max_wind_kt": 25,
        "label": "Hurricane Harvey (2017)"
      }
    },
    {
      "type": "Feature",
      "geometry": {
        "type": "Point",
        "coordinates": [
          -90.7,
          20.5
        ]
      },
      "properties": {
        "timestamp": "2017-08-23T00:00:00+00:00",
        "status": "LO",
        "max_wind_kt": 25,
        "label": "Hurricane Harvey (2017)"
      }
    },
    {
      "type": "Feature",
      "geometry": {
        "type": "Point",
        "coordinates": [
          -91.6,
          20.9
        ]
      },
      "properties": {
        "timestamp": "2017-08-23T06:00:00+00:00",
        "status": "LO",
        "max_wind_kt": 25,
        "label": "Hurricane Harvey (2017)"
      }
    },
    {
      "type": "Feature",
      "geometry": {
        "type": "Point",
        "coordinates": [
          -92.3,
          21.4
        ]
      },
      "properties": {
        "timestamp": "2017-08-23T12:00:00+00:00",
        "status": "TD",
        "max_wind_kt": 30,
        "label": "Hurricane Harvey (2017)"
      }
    },
    {
      "type": "Feature",
      "geometry": {
        "type": "Point",
        "coordinates": [
          -92.4,
          21.6
        ]
      },
      "properties": {
        "timestamp": "2017-08-23T18:00:00+00:00",
        "status": "TS",
        "max_wind_kt": 35,
        "label": "Hurricane Harvey (2017)"
      }
    },
    {
      "type": "Feature",
      "geometry": {
        "type": "Point",
        "coordinates": [
          -92.5,
          22.0
        ]
      },
      "properties": {
        "timestamp": "2017-08-24T00:00:00+00:00",
        "status": "TS",
        "max_wind_kt": 40,
        "label": "Hurricane Harvey (2017)"
      }
    },
    {
      "type": "Feature",
      "geometry": {
        "type": "Point",
        "coordinates": [
          -92.6,
          22.8
        ]
      },
      "properties": {
        "timestamp": "2017-08-24T06:00:00+00:00",
        "status": "TS",
        "max_wind_kt": 50,
        "label": "Hurricane Harvey (2017)"
      }
    },
    {
      "type": "Feature",
      "geometry": {
        "type": "Point",
        "coordinates": [
          -93.1,
          23.7
        ]
      },
      "properties": {
        "timestamp": "2017-08-24T12:00:00+00:00",
        "status": "TS",
        "max_wind_kt": 60,
        "label": "Hurricane Harvey (2017)"
      }
    },
    {
      "type": "Feature",
      "geometry": {
        "type": "Point",
        "coordinates": [
          -93.6,
          24.4
        ]
      },
      "properties": {
        "timestamp": "2017-08-24T18:00:00+00:00",
        "status": "HU",
        "max_wind_kt": 70,
        "label": "Hurricane Harvey (2017)"
      }
    },
    {
      "type": "Feature",
      "geometry": {
        "type": "Point",
        "coordinates": [
          -94.4,
          25.0
        ]
      },
      "properties": {
        "timestamp": "2017-08-25T00:00:00+00:00",
        "status": "HU",
        "max_wind_kt": 80,
        "label": "Hurricane Harvey (2017)"
      }
    },
    {
      "type": "Feature",
      "geometry": {
        "type": "Point",
        "coordinates": [
          -95.1,
          25.6
        ]
      },
      "properties": {
        "timestamp": "2017-08-25T06:00:00+00:00",
        "status": "HU",
        "max_wind_kt": 90,
        "label": "Hurricane Harvey (2017)"
      }
    },
    {
      "type": "Feature",
      "geometry": {
        "type": "Point",
        "coordinates": [
          -95.8,
          26.3
        ]
      },
      "properties": {
        "timestamp": "2017-08-25T12:00:00+00:00",
        "status": "HU",
        "max_wind_kt": 95,
        "label": "Hurricane Harvey (2017)"
      }
    },
    {
      "type": "Feature",
      "geometry": {
        "type": "Point",
        "coordinates": [
          -96.3,
          27.1
        ]
      },
      "properties": {
        "timestamp": "2017-08-25T18:00:00+00:00",
        "status": "HU",
        "max_wind_kt": 105,
        "label": "Hurricane Harvey (2017)"
      }
    },
    {
      "type": "Feature",
      "geometry": {
        "type": "Point",
        "coordinates": [
          -96.8,
          27.8
        ]
      },
      "properties": {
        "timestamp": "2017-08-26T00:00:00+00:00",
        "status": "HU",
        "max_wind_kt": 115,
        "label": "Hurricane Harvey (2017)"
      }
    },
    {
      "type": "Feature",
      "geometry": {
        "type": "Point",
        "coordinates": [
          -96.9,
          28.0
        ]
      },
      "properties": {
        "timestamp": "2017-08-26T03:00:00+00:00",
        "status": "HU",
        "max_wind_kt": 115,
        "label": "Hurricane Harvey (2017)"
      }
    },
    {
      "type": "Feature",
      "geometry": {
        "type": "Point",
        "coordinates": [
          -97.1,
          28.2
        ]
      },
      "properties": {
        "timestamp": "2017-08-26T06:00:00+00:00",
        "status": "HU",
        "max_wind_kt": 105,
        "label": "Hurricane Harvey (2017)"
      }
    },
    {
      "type": "Feature",
      "geometry": {
        "type": "Point",
        "coordinates": [
          -97.3,
          28.7
        ]
      },
      "properties": {
        "timestamp": "2017-08-26T12:00:00+00:00",
        "status": "HU",
        "max_wind_kt": 65,
        "label": "Hurricane Harvey (2017)"
      }
    },
    {
      "type": "Feature",
      "geometry": {
        "type": "Point",
        "coordinates": [
          -97.5,
          29.0
        ]
      },
      "properties": {
        "timestamp": "2017-08-26T18:00:00+00:00",
        "status": "TS",
        "max_wind_kt": 50,
        "label": "Hurricane Harvey (2017)"
      }
    },
    {
      "type": "Feature",
      "geometry": {
        "type": "Point",
        "coordinates": [
          -97.4,
          29.2
        ]
      },
      "properties": {
        "timestamp": "2017-08-27T00:00:00+00:00",
        "status": "TS",
        "max_wind_kt": 45,
        "label": "Hurricane Harvey (2017)"
      }
    },
    {
      "type": "Feature",
      "geometry": {
        "type": "Point",
        "coordinates": [
          -97.6,
          29.3
        ]
      },
      "properties": {
        "timestamp": "2017-08-27T06:00:00+00:00",
        "status": "TS",
        "max_wind_kt": 40,
        "label": "Hurricane Harvey (2017)"
      }
    },
    {
      "type": "Feature",
      "geometry": {
        "type": "Point",
        "coordinates": [
          -97.5,
          29.1
        ]
      },
      "properties": {
        "timestamp": "2017-08-27T12:00:00+00:00",
        "status": "TS",
        "max_wind_kt": 35,
        "label": "Hurricane Harvey (2017)"
      }
    },
    {
      "type": "Feature",
      "geometry": {
        "type": "Point",
        "coordinates": [
          -97.2,
          29.0
        ]
      },
      "properties": {
        "timestamp": "2017-08-27T18:00:00+00:00",
        "status": "TS",
        "max_wind_kt": 35,
        "label": "Hurricane Harvey (2017)"
      }
    },
    {
      "type": "Feature",
      "geometry": {
        "type": "Point",
        "coordinates": [
          -96.8,
          28.8
        ]
      },
      "properties": {
        "timestamp": "2017-08-28T00:00:00+00:00",
        "status": "TS",
        "max_wind_kt": 35,
        "label": "Hurricane Harvey (2017)"
      }
    },
    {
      "type": "Feature",
      "geometry": {
        "type": "Point",
        "coordinates": [
          -96.5,
          28.6
        ]
      },
      "properties": {
        "timestamp": "2017-08-28T06:00:00+00:00",
        "status": "TS",
        "max_wind_kt": 40,
        "label": "Hurricane Harvey (2017)"
      }
    },
    {
      "type": "Feature",
      "geometry": {
        "type": "Point",
        "coordinates": [
          -96.2,
          28.5
        ]
      },
      "properties": {
        "timestamp": "2017-08-28T12:00:00+00:00",
        "status": "TS",
        "max_wind_kt": 40,
        "label": "Hurricane Harvey (2017)"
      }
    },
    {
      "type": "Feature",
      "geometry": {
        "type": "Point",
        "coordinates": [
          -95.9,
          28.4
        ]
      },
      "properties": {
        "timestamp": "2017-08-28T18:00:00+00:00",
        "status": "TS",
        "max_wind_kt": 40,
        "label": "Hurricane Harvey (2017)"
      }
    },
    {
      "type": "Feature",
      "geometry": {
        "type": "Point",
        "coordinates": [
          -95.4,
          28.2
        ]
      },
      "properties": {
        "timestamp": "2017-08-29T00:00:00+00:00",
        "status": "TS",
        "max_wind_kt": 40,
        "label": "Hurricane Harvey (2017)"
      }
    },
    {
      "type": "Feature",
      "geometry": {
        "type": "Point",
        "coordinates": [
          -95.0,
          28.1
        ]
      },
      "properties": {
        "timestamp": "2017-08-29T06:00:00+00:00",
        "status": "TS",
        "max_wind_kt": 40,
        "label": "Hurricane Harvey (2017)"
      }
    },
    {
      "type": "Feature",
      "geometry": {
        "type": "Point",
        "coordinates": [
          -94.6,
          28.2
        ]
      },
      "properties": {
        "timestamp": "2017-08-29T12:00:00+00:00",
        "status": "TS",
        "max_wind_kt": 40,
        "label": "Hurricane Harvey (2017)"
      }
    },
    {
      "type": "Feature",
      "geometry": {
        "type": "Point",
        "coordinates": [
          -94.2,
          28.5
        ]
      },
      "properties": {
        "timestamp": "2017-08-29T18:00:00+00:00",
        "status": "TS",
        "max_wind_kt": 45,
        "label": "Hurricane Harvey (2017)"
      }
    },
    {
      "type": "Feature",
      "geometry": {
        "type": "Point",
        "coordinates": [
          -93.8,
          28.9
        ]
      },
      "properties": {
        "timestamp": "2017-08-30T00:00:00+00:00",
        "status": "TS",
        "max_wind_kt": 45,
        "label": "Hurricane Harvey (2017)"
      }
    },
    {
      "type": "Feature",
      "geometry": {
        "type": "Point",
        "coordinates": [
          -93.6,
          29.4
        ]
      },
      "properties": {
        "timestamp": "2017-08-30T06:00:00+00:00",
        "status": "TS",
        "max_wind_kt": 40,
        "label": "Hurricane Harvey (2017)"
      }
    },
    {
      "type": "Feature",
      "geometry": {
        "type": "Point",
        "coordinates": [
          -93.5,
          29.8
        ]
      },
      "properties": {
        "timestamp": "2017-08-30T08:00:00+00:00",
        "status": "TS",
        "max_wind_kt": 40,
        "label": "Hurricane Harvey (2017)"
      }
    },
    {
      "type": "Feature",
      "geometry": {
        "type": "Point",
        "coordinates": [
          -93.4,
          30.1
        ]
      },
      "properties": {
        "timestamp": "2017-08-30T12:00:00+00:00",
        "status": "TS",
        "max_wind_kt": 40,
        "label": "Hurricane Harvey (2017)"
      }
    },
    {
      "type": "Feature",
      "geometry": {
        "type": "Point",
        "coordinates": [
          -93.1,
          30.6
        ]
      },
      "properties": {
        "timestamp": "2017-08-30T18:00:00+00:00",
        "status": "TS",
        "max_wind_kt": 35,
        "label": "Hurricane Harvey (2017)"
      }
    },
    {
      "type": "Feature",
      "geometry": {
        "type": "Point",
        "coordinates": [
          -92.6,
          31.3
        ]
      },
      "properties": {
        "timestamp": "2017-08-31T00:00:00+00:00",
        "status": "TD",
        "max_wind_kt": 30,
        "label": "Hurricane Harvey (2017)"
      }
    },
    {
      "type": "Feature",
      "geometry": {
        "type": "Point",
        "coordinates": [
          -92.2,
          31.9
        ]
      },
      "properties": {
        "timestamp": "2017-08-31T06:00:00+00:00",
        "status": "TD",
        "max_wind_kt": 25,
        "label": "Hurricane Harvey (2017)"
      }
    },
    {
      "type": "Feature",
      "geometry": {
        "type": "Point",
        "coordinates": [
          -91.7,
          32.5
        ]
      },
      "properties": {
        "timestamp": "2017-08-31T12:00:00+00:00",
        "status": "TD",
        "max_wind_kt": 20,
        "label": "Hurricane Harvey (2017)"
      }
    },
    {
      "type": "Feature",
      "geometry": {
        "type": "Point",
        "coordinates": [
          -90.9,
          33.4
        ]
      },
      "properties": {
        "timestamp": "2017-08-31T18:00:00+00:00",
        "status": "TD",
        "max_wind_kt": 25,
        "label": "Hurricane Harvey (2017)"
      }
    },
    {
      "type": "Feature",
      "geometry": {
        "type": "Point",
        "coordinates": [
          -89.6,
          34.1
        ]
      },
      "properties": {
        "timestamp": "2017-09-01T00:00:00+00:00",
        "status": "TD",
        "max_wind_kt": 30,
        "label": "Hurricane Harvey (2017)"
      }
    },
    {
      "type": "Feature",
      "geometry": {
        "type": "Point",
        "coordinates": [
          -88.2,
          34.9
        ]
      },
      "properties": {
        "timestamp": "2017-09-01T06:00:00+00:00",
        "status": "EX",
        "max_wind_kt": 30,
        "label": "Hurricane Harvey (2017)"
      }
    },
    {
      "type": "Feature",
      "geometry": {
        "type": "Point",
        "coordinates": [
          -87.1,
          36.0
        ]
      },
      "properties": {
        "timestamp": "2017-09-01T12:00:00+00:00",
        "status": "EX",
        "max_wind_kt": 25,
        "label": "Hurricane Harvey (2017)"
      }
    },
    {
      "type": "Feature",
      "geometry": {
        "type": "Point",
        "coordinates": [
          -86.4,
          36.5
        ]
      },
      "properties": {
        "timestamp": "2017-09-01T18:00:00+00:00",
        "status": "EX",
        "max_wind_kt": 20,
        "label": "Hurricane Harvey (2017)"
      }
    },
    {
      "type": "Feature",
      "geometry": {
        "type": "Point",
        "coordinates": [
          -85.6,
          37.2
        ]
      },
      "properties": {
        "timestamp": "2017-09-02T00:00:00+00:00",
        "status": "EX",
        "max_wind_kt": 20,
        "label": "Hurricane Harvey (2017)"
      }
    },
    {
      "type": "Feature",
      "geometry": {
        "type": "Point",
        "coordinates": [
          -84.9,
          37.9
        ]
      },
      "properties": {
        "timestamp": "2017-09-02T06:00:00+00:00",
        "status": "EX",
        "max_wind_kt": 20,
        "label": "Hurricane Harvey (2017)"
      }
    },
    {
      "type": "Feature",
      "geometry": {
        "type": "Point",
        "coordinates": [
          -84.7,
          38.2
        ]
      },
      "properties": {
        "timestamp": "2017-09-02T12:00:00+00:00",
        "status": "EX",
        "max_wind_kt": 15,
        "label": "Hurricane Harvey (2017)"
      }
    }
  ]
}