{
  "type": "FeatureCollection",
  "features": [
    {
      "type": "Feature",
      "geometry": {
        "type": "Point",
        "coordinates": [
          -66.3,
          12.3
        ]
      },
      "properties": {
        "timestamp": "2022-09-22T18:00:00+00:00",
        "status": "LO",
        "max_wind_kt": 30,
        "label": "Hurricane Ian (2022)"
      }
    },
    {
      "type": "Feature",
      "geometry": {
        "type": "Point",
        "coordinates": [
          -67.2,
          12.9
        ]
      },
      "properties": {
        "timestamp": "2022-09-23T00:00:00+00:00",
        "status": "LO",
        "max_wind_kt": 30,
        "label": "Hurricane Ian (2022)"
      }
    },
    {
      "type": "Feature",
      "geometry": {
        "type": "Point",
        "coordinates": [
          -68.1,
          13.7
        ]
      },
      "properties": {
        "timestamp": "2022-09-23T06:00:00+00:00",
        "status": "TD",
        "max_wind_kt": 30,
        "label": "Hurricane Ian (2022)"
      }
    },
    {
      "type": "Feature",
      "geometry": {
        "type": "Point",
        "coordinates": [
          -69.3,
          14.2
        ]
      },
      "properties": {
        "timestamp": "2022-09-23T12:00:00+00:00",
        "status": "TD",
        "max_wind_kt": 30,
        "label": "Hurricane Ian (2022)"
      }
    },
    {
      "type": "Feature",
      "geometry": {
        "type": "Point",
        "coordinates": [
          -70.6,
          14.6
        ]
      },
      "properties": {
        "timestamp": "2022-09-23T18:00:00+00:00",
        "status": "TD",
        "max_wind_kt": 30,
        "label": "Hurricane Ian (2022)"
      }
    },
    {
      "type": "Feature",
      "geometry": {
        "type": "Point",
        "coordinates": [
          -71.7,
          14.7
        ]
      },
      "properties": {
        "timestamp": "2022-09-24T00:00:00+00:00",
        "status": "TS",
        "max_wind_kt": 35,
        "label": "Hurricane Ian (2022)"
      }
    },
    {
      "type": "Feature",
      "geometry": {
        "type": "Point",
        "coordinates": [
          -72.9,
          14.7
        ]
      },
      "properties": {
        "timestamp": "2022-09-24T06:00:00+00:00",
        "status": "TS",
        "max_wind_kt": 35,
        "label": "Hurricane Ian (2022)"
      }
    },
    {
      "type": "Feature",
      "geometry": {
        "type": "Point",
        "coordinates": [
          -74.4,
          14.5
        ]
      },
      "properties": {
        "timestamp": "2022-09-24T12:00:00+00:00",
        "status": "TS",
        "max_wind_kt": 40,
        "label": "Hurricane Ian (2022)"
      }
    },
    {
      "type": "Feature",
      "geometry": {
        "type": "Point",
        "coordinates": [
          -75.8,
          14.4
        ]
      },
      "properties": {
        "timestamp": "2022-09-24T18:00:00+00:00",
        "status": "TS",
        "max_wind_kt": 40,
        "label": "Hurricane Ian (2022)"
      }
    },
    {
      "type": "Feature",
      "geometry": {
        "type": "Point",
        "coordinates": [
          -77.2,
          14.6
        ]
      },
      "properties": {
        "timestamp": "2022-09-25T00:00:00+00:00",
        "status": "TS",
        "max_wind_kt": 40,
        "label": "Hurricane Ian (2022)"
      }
    },
    {
      "type": "Feature",
      "geometry": {
        "type": "Point",
        "coordinates": [
          -78.3,
          14.6
        ]
      },
      "properties": {
        "timestamp": "2022-09-25T06:00:00+00:00",
        "status": "TS",
        "max_wind_kt": 40,
        "label": "Hurricane Ian (2022)"
      }
    },
    {
      "type": "Feature",
      "geometry": {
        "type": "Point",
        "coordinates": [
          -79.4,
          15.0
        ]
      },
      "properties": {
        "timestamp": "2022-09-25T12:00:00+00:00",
        "status": "TS",
        "max_wind_kt": 40,
        "label": "Hurricane Ian (2022)"
      }
    },
    {
      "type": "Feature",
      "geometry": {
        "type": "Point",
        "coordinates": [
          -80.1,
          15.8
        ]
      },
      "properties": {
        "timestamp": "2022-09-25T18:00:00+00:00",
        "status": "TS",
        "max_wind_kt": 40,
        "label": "Hurricane Ian (2022)"
      }
    },
    {
      "type": "Feature",
      "geometry": {
        "type": "Point",
        "coordinates": [
          -80.9,
          16.8
        ]
      },
      "properties": {
        "timestamp": "2022-09-26T00:00:00+00:00",
        "status": "TS",
        "max_wind_kt": 50,
        "label": "Hurricane Ian (2022)"
      }
    },
    {
      "type": "Feature",
      "geometry": {
        "type": "Point",
        "coordinates": [
          -81.7,
          17.7
        ]
      },
      "properties": {
        "timestamp": "2022-09-26T06:00:00+00:00",
        "status": "HU",
        "max_wind_kt": 65,
        "label": "Hurricane Ian (2022)"
      }
    },
    {
      "type": "Feature",
      "geometry": {
        "type": "Point",
        "coordinates": [
          -82.4,
          18.7
        ]
      },
      "properties": {
        "timestamp": "2022-09-26T12:00:00+00:00",
        "status": "HU",
        "max_wind_kt": 70,
        "label": "Hurricane Ian (2022)"
      }
    },
    {
      "type": "Feature",
      "geometry": {
        "type": "Point",
        "coordinates": [
          -83.0,
          19.7
        ]
      },
      "properties": {
        "timestamp": "2022-09-26T18:00:00+00:00",
        "status": "HU",
        "max_wind_kt": 80,
        "label": "Hurricane Ian (2022)"
      }
    },
    {
      "type": "Feature",
      "geometry": {
        "type": "Point",
        "coordinates": [
          -83.3,
          20.8
        ]
      },
      "properties": {
        "timestamp": "2022-09-27T00:00:00+00:00",
        "status": "HU",
        "max_wind_kt": 85,
        "label": "Hurricane Ian (2022)"
      }
    },
    {
      "type": "Feature",
      "geometry": {
        "type": "Point",
        "coordinates": [
          -83.6,
          21.8
        ]
      },
      "properties": {
        "timestamp": "2022-09-27T06:00:00+00:00",
        "status": "HU",
        "max_wind_kt": 100,
        "label": "Hurricane Ian (2022)"
      }
    },
    {
      "type": "Feature",
      "geometry": {
        "type": "Point",
        "coordinates": [
          -83.7,
          22.2
        ]
      },
      "properties": {
        "timestamp": "2022-09-27T08:30:00+00:00",
        "status": "HU",
        "max_wind_kt": 110,
        "label": "Hurricane Ian (2022)"
      }
    },
    {
      "type": "Feature",
      "geometry": {
        "type": "Point",
        "coordinates": [
          -83.6,
          22.6
        ]
      },
      "properties": {
        "timestamp": "2022-09-27T12:00:00+00:00",
        "status": "HU",
        "max_wind_kt": 100,
        "label": "Hurricane Ian (2022)"
      }
    },
    {
      "type": "Feature",
      "geometry": {
        "type": "Point",
        "coordinates": [
          -83.3,
          23.5
        ]
      },
      "properties": {
        "timestamp": "2022-09-27T18:00:00+00:00",
        "status": "HU",
        "max_wind_kt": 105,
        "label": "Hurricane Ian (2022)"
      }
    },
    {
      "type": "Feature",
      "geometry": {
        "type": "Point",
        "coordinates": [
          -83.0,
          24.4
        ]
      },
      "properties": {
        "timestamp": "2022-09-28T00:00:00+00:00",
        "status": "HU",
        "max_wind_kt": 105,
        "label": "Hurricane Ian (2022)"
      }
    },
    {
      "type": "Feature",
      "geometry": {
        "type": "Point",
        "coordinates": [
          -82.9,
          24.6
        ]
      },
      "properties": {
        "timestamp": "2022-09-28T02:00:00+00:00",
        "status": "HU",
        "max_wind_kt": 110,
        "label": "Hurricane Ian (2022)"
      }
    },
    {
      "type": "Feature",
      "geometry": {
        "type": "Point",
        "coordinates": [
          -82.9,
          25.2
        ]
      },
      "properties": {
        "timestamp": "2022-09-28T06:00:00+00:00",
        "status": "HU",
        "max_wind_kt": 120,
        "label": "Hurricane Ian (2022)"
      }
    },
    {
      "type": "Feature",
      "geometry": {
        "type": "Point",
        "coordinates": [
          -82.7,
          26.0
        ]
      },
      "properties": {
        "timestamp": "2022-09-28T12:00:00+00:00",
        "status": "HU",
        "max_wind_kt": 140,
        "label": "Hurricane Ian (2022)"
      }
    },
    {
      "type": "Feature",
      "geometry": {
        "type": "Point",
        "coordinates": [
          -82.4,
          26.6
        ]
      },
      "properties": {
        "timestamp": "2022-09-28T18:00:00+00:00",
        "status": "HU",
        "max_wind_kt": 135,
        "label": "Hurricane Ian (2022)"
      }
    },
    {
      "type": "Feature",
      "geometry": {
        "type": "Point",
        "coordinates": [
          -82.2,
          26.7
        ]
      },
      "properties": {
        "timestamp": "2022-09-28T19:05:00+00:00",
        "status": "HU",
        "max_wind_kt": 130,
        "label": "Hurricane Ian (2022)"
      }
    },
    {
      "type": "Feature",
      "geometry": {
        "type": "Point",
        "coordinates": [
          -82.0,
          26.8
        ]
      },
      "properties": {
        "timestamp": "2022-09-28T20:35:00+00:00",
        "status": "HU",
        "max_wind_kt": 125,
        "label": "Hurricane Ian (2022)"
      }
    },
    {
      "type": "Feature",
      "geometry": {
        "type": "Point",
        "coordinates": [
          -81.7,
          27.2
        ]
      },
      "properties": {
        "timestamp": "2022-09-29T00:00:00+00:00",
        "status": "HU",
        "max_wind_kt": 100,
        "label": "Hurricane Ian (2022)"
      }
    },
    {
      "type": "Feature",
      "geometry": {
        "type": "Point",
        "coordinates": [
          -81.1,
          27.7
        ]
      },
      "properties": {
        "timestamp": "2022-09-29T06:00:00+00:00",
        "status": "HU",
        "max_wind_kt": 65,
        "label": "Hurricane Ian (2022)"
      }
    },
    {
      "type": "Feature",
      "geometry": {
        "type": "Point",
        "coordinates": [
          -80.6,
          28.4
        ]
      },
      "properties": {
        "timestamp": "2022-09-29T12:00:00+00:00",
        "status": "TS",
        "max_wind_kt": 60,
        "label": "Hurricane Ian (2022)"
      }
    },
    {
      "type": "Feature",
      "geometry": {
        "type": "Point",
        "coordinates": [
          -80.1,
          28.9
        ]
      },
      "properties": {
        "timestamp": "2022-09-29T18:00:00+00:00",
        "status": "HU",
        "max_wind_kt": 65,
        "label": "Hurricane Ian (2022)"
      }
    },
    {
      "type": "Feature",
      "geometry": {
        "type": "Point",
        "coordinates": [
          -79.4,
          29.6
        ]
      },
      "properties": {
        "timestamp": "2022-09-30T00:00:00+00:00",
        "status": "HU",
        "max_wind_kt": 70,
        "label": "Hurricane Ian (2022)"
      }
    },
    {
      "type": "Feature",
      "geometry": {
        "type": "Point",
        "coordinates": [
          -79.1,
          30.3
        ]
      },
      "properties": {
        "timestamp": "2022-09-30T06:00:00+00:00",
        "status": "HU",
        "max_wind_kt": 75,
        "label": "Hurricane Ian (2022)"
      }
    },
    {
      "type": "Feature",
      "geometry": {
        "type": "Point",
        "coordinates": [
          -79.0,
          31.5
        ]
      },
      "properties": {
        "timestamp": "2022-09-30T12:00:00+00:00",
        "status": "HU",
        "max_wind_kt": 75,
        "label": "Hurricane Ian (2022)"
      }
    },
    {
      "type": "Feature",
      "geometry": {
        "type": "Point",
        "coordinates": [
          -79.2,
          33.3
        ]
      },
      "properties": {
        "timestamp": "2022-09-30T18:00:00+00:00",
        "status": "HU",
        "max_wind_kt": 70,
        "label": "Hurricane Ian (2022)"
      }
    },
    {
      "type": "Feature",
      "geometry": {
        "type": "Point",
        "coordinates": [
          -79.2,
          33.3
        ]
      },
      "properties": {
        "timestamp": "2022-09-30T18:05:00+00:00",
        "status": "HU",
        "max_wind_kt": 70,
        "label": "Hurricane Ian (2022)"
      }
    },
    {
      "type": "Feature",
      "geometry": {
        "type": "Point",
        "coordinates": [
          -79.3,
          34.4
        ]
      },
      "properties": {
        "timestamp": "2022-10-01T00:00:00+00:00",
        "status": "EX",
        "max_wind_kt": 50,
        "label": "Hurricane Ian (2022)"
      }
    },
    {
      "type": "Feature",
      "geometry": {
        "type": "Point",
        "coordinates": [
          -79.7,
          35.3
        ]
      },
      "properties": {
        "timestamp": "2022-10-01T06:00:00+00:00",
        "status": "EX",
        "max_wind_kt": 30,
        "label": "Hurricane Ian (2022)"
      }
    }
  ]
}