{
  "type": "FeatureCollection",
  "features": [
    {
      "type": "Feature",
      "geometry": {
        "type": "Point",
        "coordinates": [
          -78.9,
          16.5
        ]
      },
      "properties": {
        "timestamp": "2021-08-26T12:00:00+00:00",
        "status": "TD",
        "max_wind_kt": 30,
        "label": "Hurricane Ida (2021)"
      }
    },
    {
      "type": "Feature",
      "geometry": {
        "type": "Point",
        "coordinates": [
          -79.5,
          17.4
        ]
      },
      "properties": {
        "timestamp": "2021-08-26T18:00:00+00:00",
        "status": "TS",
        "max_wind_kt": 35,
        "label": "Hurricane Ida (2021)"
      }
    },
    {
      "type": "Feature",
      "geometry": {
        "type": "Point",
        "coordinates": [
          -80.2,
          18.3
        ]
      },
      "properties": {
        "timestamp": "2021-08-27T00:00:00+00:00",
        "status": "TS",
        "max_wind_kt": 40,
        "label": "Hurricane Ida (2021)"
      }
    },
    {
      "type": "Feature",
      "geometry": {
        "type": "Point",
        "coordinates": [
          -80.9,
          19.4
        ]
      },
      "properties": {
        "timestamp": "2021-08-27T06:00:00+00:00",
        "status": "TS",
        "max_wind_kt": 45,
        "label": "Hurricane Ida (2021)"
      }
    },
    {
      "type": "Feature",
      "geometry": {
        "type": "Point",
        "coordinates": [
          -81.7,
          20.4
        ]
      },
      "properties": {
        "timestamp": "2021-08-27T12:00:00+00:00",
        "status": "TS",
        "max_wind_kt": 55,
        "label": "Hurricane Ida (2021)"
      }
    },
    {
      "type": "Feature",
      "geometry": {
        "type": "Point",
        "coordinates": [
          -82.6,
          21.5
        ]
      },
      "properties": {
        "timestamp": "2021-08-27T18:00:00+00:00",
        "status": "HU",
        "max_wind_kt": 70,
        "label": "Hurricane Ida (2021)"
      }
    },
    {
      "type": "Feature",
      "geometry": {
        "type": "Point",
        "coordinates": [
          -83.2,
          22.4
        ]
      },
      "properties": {
        "timestamp": "2021-08-27T23:25:00+00:00",
        "status": "HU",
        "max_wind_kt": 70,
        "label": "Hurricane Ida (2021)"
      }
    },
    {
      "type": "Feature",
      "geometry": {
        "type": "Point",
        "coordinates": [
          -83.5,
          22.6
        ]
      },
      "properties": {
        "timestamp": "2021-08-28T00:00:00+00:00",
        "status": "HU",
        "max_wind_kt": 70,
        "label": "Hurricane Ida (2021)"
      }
    },
    {
      "type": "Feature",
      "geometry": {
        "type": "Point",
        "coordinates": [
          -84.7,
          23.5
        ]
      },
      "properties": {
        "timestamp": "2021-08-28T06:00:00+00:00",
        "status": "HU",
        "max_wind_kt": 70,
        "label": "Hurricane Ida (2021)"
      }
    },
    {
      "type": "Feature",
      "geometry": {
        "type": "Point",
        "coordinates": [
          -85.7,
          24.4
        ]
      },
      "properties": {
        "timestamp": "2021-08-28T12:00:00+00:00",
        "status": "HU",
        "max_wind_kt": 70,
        "label": "Hurricane Ida (2021)"
      }
    },
    {
      "type": "Feature",
      "geometry": {
        "type": "Point",
        "coordinates": [
          -86.6,
          25.6
        ]
      },
      "properties": {
        "timestamp": "2021-08-28T18:00:00+00:00",
        "status": "HU",
        "max_wind_kt": 80,
        "label": "Hurricane Ida (2021)"
      }
    },
    {
      "type": "Feature",
      "geometry": {
        "type": "Point",
        "coordinates": [
          -87.6,
          26.7
        ]
      },
      "properties": {
        "timestamp": "2021-08-29T00:00:00+00:00",
        "status": "HU",
        "max_wind_kt": 90,
        "label": "Hurricane Ida (2021)"
      }
    },
    {
      "type": "Feature",
      "geometry": {
        "type": "Point",
        "coordinates": [
          -88.7,
          27.6
        ]
      },
      "properties": {
        "timestamp": "2021-08-29T06:00:00+00:00",
        "status": "HU",
        "max_wind_kt": 115,
        "label": "Hurricane Ida (2021)"
      }
    },
    {
      "type": "Feature",
      "geometry": {
        "type": "Point",
        "coordinates": [
          -89.6,
          28.5
        ]
      },
      "properties": {
        "timestamp": "2021-08-29T12:00:00+00:00",
        "status": "HU",
        "max_wind_kt": 130,
        "label": "Hurricane Ida (2021)"
      }
    },
    {
      "type": "Feature",
      "geometry": {
        "type": "Point",
        "coordinates": [
          -90.2,
          29.1
        ]
      },
      "properties": {
        "timestamp": "2021-08-29T16:55:00+00:00",
        "status": "HU",
        "max_wind_kt": 130,
        "label": "Hurricane Ida (2021)"
      }
    },
    {
      "type": "Feature",
      "geometry": {
        "type": "Point",
        "coordinates": [
          -90.4,
          29.2
        ]
      },
      "properties": {
        "timestamp": "2021-08-29T18:00:00+00:00",
        "status": "HU",
        "max_wind_kt": 125,
        "label": "Hurricane Ida (2021)"
      }
    },
    {
      "type": "Feature",
      "geometry": {
        "type": "Point",
        "coordinates": [
          -90.6,
          29.9
        ]
      },
      "properties": {
        "timestamp": "2021-08-30T00:00:00+00:00",
        "status": "HU",
        "max_wind_kt": 105,
        "label": "Hurricane Ida (2021)"
      }
    },
    {
      "type": "Feature",
      "geometry": {
        "type": "Point",
        "coordinates": [
          -90.8,
          30.6
        ]
      },
      "properties": {
        "timestamp": "2021-08-30T06:00:00+00:00",
        "status": "HU",
        "max_wind_kt": 65,
        "label": "Hurricane Ida (2021)"
      }
    },
    {
      "type": "Feature",
      "geometry": {
        "type": "Point",
        "coordinates": [
          -90.9,
          31.5
        ]
      },
      "properties": {
        "timestamp": "2021-08-30T12:00:00+00:00",
        "status": "TS",
        "max_wind_kt": 40,
        "label": "Hurricane Ida (2021)"
      }
    },
    {
      "type": "Feature",
      "geometry": {
        "type": "Point",
        "coordinates": [
          -90.5,
          32.2
        ]
      },
      "properties": {
        "timestamp": "2021-08-30T18:00:00+00:00",
        "status": "TS",
        "max_wind_kt": 35,
        "label": "Hurricane Ida (2021)"
      }
    },
    {
      "type": "Feature",
      "geometry": {
        "type": "Point",
        "coordinates": [
          -90.0,
          33.0
        ]
      },
      "properties": {
        "timestamp": "2021-08-31T00:00:00+00:00",
        "status": "TD",
        "max_wind_kt": 30,
        "label": "Hurricane Ida (2021)"
      }
    },
    {
      "type": "Feature",
      "geometry": {
        "type": "Point",
        "coordinates": [
          -89.4,
          33.8
        ]
      },
      "properties": {
        "timestamp": "2021-08-31T06:00:00+00:00",
        "status": "TD",
        "max_wind_kt": 25,
        "label": "Hurricane Ida (2021)"
      }
    },
    {
      "type": "Feature",
      "geometry": {
        "type": "Point",
        "coordinates": [
          -88.4,
          34.4
        ]
      },
      "properties": {
        "timestamp": "2021-08-31T12:00:00+00:00",
        "status": "TD",
        "max_wind_kt": 25,
        "label": "Hurricane Ida (2021)"
      }
    },
    {
      "type": "Feature",
      "geometry": {
        "type": "Point",
        "coordinates": [
          -87.1,
          35.1
        ]
      },
      "properties": {
        "timestamp": "2021-08-31T18:00:00+00:00",
        "status": "TD",
        "max_wind_kt": 20,
        "label": "Hurricane Ida (2021)"
      }
    },
    {
      "type": "Feature",
      "geometry": {
        "type": "Point",
        "coordinates": [
          -85.5,
          35.8
        ]
      },
      "properties": {
        "timestamp": "2021-09-01T00:00:00+00:00",
        "status": "TD",
        "max_wind_kt": 20,
        "label": "Hurricane Ida (2021)"
      }
    },
    {
      "type": "Feature",
      "geometry": {
        "type": "Point",
        "coordinates": [
          -83.6,
          36.7
        ]
      },
      "properties": {
        "timestamp": "2021-09-01T06:00:00+00:00",
        "status": "TD",
        "max_wind_kt": 20,
        "label": "Hurricane Ida (2021)"
      }
    },
    {
      "type": "Feature",
      "geometry": {
        "type": "Point",
        "coordinates": [
          -81.5,
          37.7
        ]
      },
      "properties": {
        "timestamp": "2021-09-01T12:00:00+00:00",
        "status": "EX",
        "max_wind_kt": 25,
        "label": "Hurricane Ida (2021)"
      }
    },
    {
      "type": "Feature",
      "geometry": {
        "type": "Point",
        "coordinates": [
          -78.5,
          39.0
        ]
      },
      "properties": {
        "timestamp": "2021-09-01T18:00:00+00:00",
        "status": "EX",
        "max_wind_kt": 30,
        "label": "Hurricane Ida (2021)"
      }
    },
    {
      "type": "Feature",
      "geometry": {
        "type": "Point",
        "coordinates": [
          -75.6,
          39.8
        ]
      },
      "properties": {
        "timestamp": "2021-09-02T00:00:00+00:00",
        "status": "EX",
        "max_wind_kt": 35,
        "label": "Hurricane Ida (2021)"
      }
    },
    {
      "type": "Feature",
      "geometry": {
        "type": "Point",
        "coordinates": [
          -72.8,
          40.6
        ]
      },
      "properties": {
        "timestamp": "2021-09-02T06:00:00+00:00",
        "status": "EX",
        "max_wind_kt": 40,
        "label": "Hurricane Ida (2021)"
      }
    },
    {
      "type": "Feature",
      "geometry": {
        "type": "Point",
        "coordinates": [
          -69.7,
          41.4
        ]
      },
      "properties": {
        "timestamp": "2021-09-02T12:00:00+00:00",
        "status": "EX",
        "max_wind_kt": 40,
        "label": "Hurricane Ida (2021)"
      }
    },
    {
      "type": "Feature",
      "geometry": {
        "type": "Point",
        "coordinates": [
          -67.2,
          43.3
        ]
      },
      "properties": {
        "timestamp": "2021-09-02T18:00:00+00:00",
        "status": "EX",
        "max_wind_kt": 40,
        "label": "Hurricane Ida (2021)"
      }
    },
    {
      "type": "Feature",
      "geometry": {
        "type": "Point",
        "coordinates": [
          -64.7,
          45.4
        ]
      },
      "properties": {
        "timestamp": "2021-09-03T00:00:00+00:00",
        "status": "EX",
        "max_wind_kt": 40,
        "label": "Hurricane Ida (2021)"
      }
    },
    {
      "type": "Feature",
      "geometry": {
        "type": "Point",
        "coordinates": [
          -63.6,
          46.6
        ]
      },
      "properties": {
        "timestamp": "2021-09-03T06:00:00+00:00",
        "status": "EX",
        "max_wind_kt": 45,
        "label": "Hurricane Ida (2021)"
      }
    },
    {
      "type": "Feature",
      "geometry": {
        "type": "Point",
        "coordinates": [
          -62.7,
          47.5
        ]
      },
      "properties": {
        "timestamp": "2021-09-03T12:00:00+00:00",
        "status": "EX",
        "max_wind_kt": 45,
        "label": "Hurricane Ida (2021)"
      }
    },
    {
      "type": "Feature",
      "geometry": {
        "type": "Point",
        "coordinates": [
          -62.4,
          48.6
        ]
      },
      "properties": {
        "timestamp": "2021-09-03T18:00:00+00:00",
        "status": "EX",
        "max_wind_kt": 45,
        "label": "Hurricane Ida (2021)"
      }
    },
    {
      "type": "Feature",
      "geometry": {
        "type": "Point",
        "coordinates": [
          -63.1,
          48.8
        ]
      },
      "properties": {
        "timestamp": "2021-09-04T00:00:00+00:00",
        "status": "EX",
        "max_wind_kt": 45,
        "label": "Hurricane Ida (2021)"
      }
    },
    {
      "type": "Feature",
      "geometry": {
        "type": "Point",
        "coordinates": [
          -63.9,
          48.7
        ]
      },
      "properties": {
        "timestamp": "2021-09-04T06:00:00+00:00",
        "status": "EX",
        "max_wind_kt": 40,
        "label": "Hurricane Ida (2021)"
      }
    },
    {
      "type": "Feature",
      "geometry": {
        "type": "Point",
        "coordinates": [
          -63.9,
          47.6
        ]
      },
      "properties": {
        "timestamp": "2021-09-04T12:00:00+00:00",
        "status": "EX",
        "max_wind_kt": 35,
        "label": "Hurricane Ida (2021)"
      }
    },
    {
      "type": "Feature",
      "geometry": {
        "type": "Point",
        "coordinates": [
          -63.5,
          46.6
        ]
      },
      "properties": {
        "timestamp": "2021-09-04T18:00:00+00:00",
        "status": "EX",
        "max_wind_kt": 30,
        "label": "Hurricane Ida (2021)"
      }
    }
  ]
}