{
  "type": "FeatureCollection",
  "features": [
    {
      "type": "Feature",
      "geometry": {
        "type": "Point",
        "coordinates": [
          -26.9,
          16.1
        ]
      },
      "properties": {
        "timestamp": "2017-08-30T00:00:00+00:00",
        "status": "TD",
        "max_wind_kt": 30,
        "label": "Hurricane Irma (2017)"
      }
    },
    {
      "type": "Feature",
      "geometry": {
        "type": "Point",
        "coordinates": [
          -28.3,
          16.2
        ]
      },
      "properties": {
        "timestamp": "2017-08-30T06:00:00+00:00",
        "status": "TS",
        "max_wind_kt": 35,
        "label": "Hurricane Irma (2017)"
      }
    },
    {
      "type": "Feature",
      "geometry": {
        "type": "Point",
        "coordinates": [
          -29.7,
          16.3
        ]
      },
      "properties": {
        "timestamp": "2017-08-30T12:00:00+00:00",
        "status": "TS",
        "max_wind_kt": 45,
        "label": "Hurricane Irma (2017)"
      }
    },
    {
      "type": "Feature",
      "geometry": {
        "type": "Point",
        "coordinates": [
          -30.8,
          16.3
        ]
      },
      "properties": {
        "timestamp": "2017-08-30T18:00:00+00:00",
        "status": "TS",
        "max_wind_kt": 50,
        "label": "Hurricane Irma (2017)"
      }
    },
    {
      "type": "Feature",
      "geometry": {
        "type": "Point",
        "coordinates": [
          -31.7,
          16.3
        ]
      },
      "properties": {
        "timestamp": "2017-08-31T00:00:00+00:00",
        "status": "TS",
        "max_wind_kt": 55,
        "label": "Hurricane Irma (2017)"
      }
    },
    {
      "type": "Feature",
      "geometry": {
        "type": "Point",
        "coordinates": [
          -32.5,
          16.4
        ]
      },
      "properties": {
        "timestamp": "2017-08-31T06:00:00+00:00",
        "status": "HU",
        "max_wind_kt": 65,
        "label": "Hurricane Irma (2017)"
      }
    },
    {
      "type": "Feature",
      "geometry": {
        "type": "Point",
        "coordinates": [
          -33.4,
          16.7
        ]
      },
      "properties": {
        "timestamp": "2017-08-31T12:00:00+00:00",
        "status": "HU",
        "max_wind_kt": 80,
        "label": "Hurricane Irma (2017)"
      }
    },
    {
      "type": "Feature",
      "geometry": {
        "type": "Point",
        "coordinates": [
          -34.2,
          17.1
        ]
      },
      "properties": {
        "timestamp": "2017-08-31T18:00:00+00:00",
        "status": "HU",
        "max_wind_kt": 95,
        "label": "Hurricane Irma (2017)"
      }
    },
    {
      "type": "Feature",
      "geometry": {
        "type": "Point",
        "coordinates": [
          -35.1,
          17.5
        ]
      },
      "properties": {
        "timestamp": "2017-09-01T00:00:00+00:00",
        "status": "HU",
        "max_wind_kt": 100,
        "label": "Hurricane Irma (2017)"
      }
    },
    {
      "type": "Feature",
      "geometry": {
        "type": "Point",
        "coordinates": [
          -36.1,
          17.9
        ]
      },
      "properties": {
        "timestamp": "2017-09-01T06:00:00+00:00",
        "status": "HU",
        "max_wind_kt": 100,
        "label": "Hurricane Irma (2017)"
      }
    },
    {
      "type": "Feature",
      "geometry": {
        "type": "Point",
        "coordinates": [
          -37.3,
          18.4
        ]
      },
      "properties": {
        "timestamp": "2017-09-01T12:00:00+00:00",
        "status": "HU",
        "max_wind_kt": 100,
        "label": "Hurricane Irma (2017)"
      }
    },
    {
      "type": "Feature",
      "geometry": {
        "type": "Point",
        "coordinates": [
          -38.5,
          18.8
        ]
      },
      "properties": {
        "timestamp": "2017-09-01T18:00:00+00:00",
        "status": "HU",
        "max_wind_kt": 100,
        "label": "Hurricane Irma (2017)"
      }
    },
    {
      "type": "Feature",
      "geometry": {
        "type": "Point",
        "coordinates": [
          -39.7,
          19.1
        ]
      },
      "properties": {
        "timestamp": "2017-09-02T00:00:00+00:00",
        "status": "HU",
        "max_wind_kt": 100,
        "label": "Hurricane Irma (2017)"
      }
    },
    {
      "type": "Feature",
      "geometry": {
        "type": "Point",
        "coordinates": [
          -41.1,
          19.1
        ]
      },
      "properties": {
        "timestamp": "2017-09-02T06:00:00+00:00",
        "status": "HU",
        "max_wind_kt": 100,
        "label": "Hurricane Irma (2017)"
      }
    },
    {
      "type": "Feature",
      "geometry": {
        "type": "Point",
        "coordinates": [
          -42.6,
          18.9
        ]
      },
      "properties": {
        "timestamp": "2017-09-02T12:00:00+00:00",
        "status": "HU",
        "max_wind_kt": 95,
        "label": "Hurricane Irma (2017)"
      }
    },
    {
      "type": "Feature",
      "geometry": {
        "type": "Point",
        "coordinates": [
          -44.1,
          18.7
        ]
      },
      "properties": {
        "timestamp": "2017-09-02T18:00:00+00:00",
        "status": "HU",
        "max_wind_kt": 95,
        "label": "Hurricane Irma (2017)"
      }
    },
    {
      "type": "Feature",
      "geometry": {
        "type": "Point",
        "coordinates": [
          -45.5,
          18.5
        ]
      },
      "properties": {
        "timestamp": "2017-09-03T00:00:00+00:00",
        "status": "HU",
        "max_wind_kt": 95,
        "label": "Hurricane Irma (2017)"
      }
    },
    {
      "type": "Feature",
      "geometry": {
        "type": "Point",
        "coordinates": [
          -46.7,
          18.2
        ]
      },
      "properties": {
        "timestamp": "2017-09-03T06:00:00+00:00",
        "status": "HU",
        "max_wind_kt": 95,
        "label": "Hurricane Irma (2017)"
      }
    },
    {
      "type": "Feature",
      "geometry": {
        "type": "Point",
        "coordinates": [
          -47.9,
          17.9
        ]
      },
      "properties": {
        "timestamp": "2017-09-03T12:00:00+00:00",
        "status": "HU",
        "max_wind_kt": 100,
        "label": "Hurricane Irma (2017)"
      }
    },
    {
      "type": "Feature",
      "geometry": {
        "type": "Point",
        "coordinates": [
          -49.2,
          17.6
        ]
      },
      "properties": {
        "timestamp": "2017-09-03T18:00:00+00:00",
        "status": "HU",
        "max_wind_kt": 100,
        "label": "Hurricane Irma (2017)"
      }
    },
    {
      "type": "Feature",
      "geometry": {
        "type": "Point",
        "coordinates": [
          -50.4,
          17.3
        ]
      },
      "properties": {
        "timestamp": "2017-09-04T00:00:00+00:00",
        "status": "HU",
        "max_wind_kt": 100,
        "label": "Hurricane Irma (2017)"
      }
    },
    {
      "type": "Feature",
      "geometry": {
        "type": "Point",
        "coordinates": [
          -51.5,
          17.0
        ]
      },
      "properties": {
        "timestamp": "2017-09-04T06:00:00+00:00",
        "status": "HU",
        "max_wind_kt": 105,
        "label": "Hurricane Irma (2017)"
      }
    },
    {
      "type": "Feature",
      "geometry": {
        "type": "Point",
        "coordinates": [
          -52.6,
          16.8
        ]
      },
      "properties": {
        "timestamp": "2017-09-04T12:00:00+00:00",
        "status": "HU",
        "max_wind_kt": 110,
        "label": "Hurricane Irma (2017)"
      }
    },
    {
      "type": "Feature",
      "geometry": {
        "type": "Point",
        "coordinates": [
          -53.9,
          16.7
        ]
      },
      "properties": {
        "timestamp": "2017-09-04T18:00:00+00:00",
        "status": "HU",
        "max_wind_kt": 115,
        "label": "Hurricane Irma (2017)"
      }
    },
    {
      "type": "Feature",
      "geometry": {
        "type": "Point",
        "coordinates": [
          -55.1,
          16.6
        ]
      },
      "properties": {
        "timestamp": "2017-09-05T00:00:00+00:00",
        "status": "HU",
        "max_wind_kt": 125,
        "label": "Hurricane Irma (2017)"
      }
    },
    {
      "type": "Feature",
      "geometry": {
        "type": "Point",
        "coordinates": [
          -56.4,
          16.6
        ]
      },
      "properties": {
        "timestamp": "2017-09-05T06:00:00+00:00",
        "status": "HU",
        "max_wind_kt": 135,
        "label": "Hurricane Irma (2017)"
      }
    },
    {
      "type": "Feature",
      "geometry": {
        "type": "Point",
        "coordinates": [
          -57.8,
          16.7
        ]
      },
      "properties": {
        "timestamp": "2017-09-05T12:00:00+00:00",
        "status": "HU",
        "max_wind_kt": 150,
        "label": "Hurricane Irma (2017)"
      }
    },
    {
      "type": "Feature",
      "geometry": {
        "type": "Point",
        "coordinates": [
          -59.2,
          16.9
        ]
      },
      "properties": {
        "timestamp": "2017-09-05T18:00:00+00:00",
        "status": "HU",
        "max_wind_kt": 155,
        "label": "Hurricane Irma (2017)"
      }
    },
    {
      "type": "Feature",
      "geometry": {
        "type": "Point",
        "coordinates": [
          -60.6,
          17.3
        ]
      },
      "properties": {
        "timestamp": "2017-09-06T00:00:00+00:00",
        "status": "HU",
        "max_wind_kt": 155,
        "label": "Hurricane Irma (2017)"
      }
    },
    {
      "type": "Feature",
      "geometry": {
        "type": "Point",
        "coordinates": [
          -61.8,
          17.7
        ]
      },
      "properties": {
        "timestamp": "2017-09-06T05:45:00+00:00",
        "status": "HU",
        "max_wind_kt": 155,
        "label": "Hurricane Irma (2017)"
      }
    },
    {
      "type": "Feature",
      "geometry": {
        "type": "Point",
        "coordinates": [
          -61.9,
          17.7
        ]
      },
      "properties": {
        "timestamp": "2017-09-06T06:00:00+00:00",
        "status": "HU",
        "max_wind_kt": 155,
        "label": "Hurricane Irma (2017)"
      }
    },
    {
      "type": "Feature",
      "geometry": {
        "type": "Point",
        "coordinates": [
          -63.1,
          18.1
        ]
      },
      "properties": {
        "timestamp": "2017-09-06T11:15:00+00:00",
        "status": "HU",
        "max_wind_kt": 155,
        "label": "Hurricane Irma (2017)"
      }
    },
    {
      "type": "Feature",
      "geometry": {
        "type": "Point",
        "coordinates": [
          -63.3,
          18.1
        ]
      },
      "properties": {
        "timestamp": "2017-09-06T12:00:00+00:00",
        "status": "HU",
        "max_wind_kt": 155,
        "label": "Hurricane Irma (2017)"
      }
    },
    {
      "type": "Feature",
      "geometry": {
        "type": "Point",
        "coordinates": [
          -64.4,
          18.5
        ]
      },
      "properties": {
        "timestamp": "2017-09-06T16:30:00+00:00",
        "status": "HU",
        "max_wind_kt": 155,
        "label": "Hurricane Irma (2017)"
      }
    },
    {
      "type": "Feature",
      "geometry": {
        "type": "Point",
        "coordinates": [
          -64.7,
          18.6
        ]
      },
      "properties": {
        "timestamp": "2017-09-06T18:00:00+00:00",
        "status": "HU",
        "max_wind_kt": 150,
        "label": "Hurricane Irma (2017)"
      }
    },
    {
      "type": "Feature",
      "geometry": {
        "type": "Point",
        "coordinates": [
          -66.2,
          19.2
        ]
      },
      "properties": {
        "timestamp": "2017-09-07T00:00:00+00:00",
        "status": "HU",
        "max_wind_kt": 150,
        "label": "Hurricane Irma (2017)"
      }
    },
    {
      "type": "Feature",
      "geometry": {
        "type": "Point",
        "coordinates": [
          -67.6,
          19.7
        ]
      },
      "properties": {
        "timestamp": "2017-09-07T06:00:00+00:00",
        "status": "HU",
        "max_wind_kt": 145,
        "label": "Hurricane Irma (2017)"
      }
    },
    {
      "type": "Feature",
      "geometry": {
        "type": "Point",
        "coordinates": [
          -69.0,
          20.2
        ]
      },
      "properties": {
        "timestamp": "2017-09-07T12:00:00+00:00",
        "status": "HU",
        "max_wind_kt": 145,
        "label": "Hurricane Irma (2017)"
      }
    },
    {
      "type": "Feature",
      "geometry": {
        "type": "Point",
        "coordinates": [
          -70.4,
          20.7
        ]
      },
      "properties": {
        "timestamp": "2017-09-07T18:00:00+00:00",
        "status": "HU",
        "max_wind_kt": 145,
        "label": "Hurricane Irma (2017)"
      }
    },
    {
      "type": "Feature",
      "geometry": {
        "type": "Point",
        "coordinates": [
          -71.8,
          21.1
        ]
      },
      "properties": {
        "timestamp": "2017-09-08T00:00:00+00:00",
        "status": "HU",
        "max_wind_kt": 140,
        "label": "Hurricane Irma (2017)"
      }
    },
    {
      "type": "Feature",
      "geometry": {
        "type": "Point",
        "coordinates": [
          -73.0,
          21.5
        ]
      },
      "properties": {
        "timestamp": "2017-09-08T05:00:00+00:00",
        "status": "HU",
        "max_wind_kt": 135,
        "label": "Hurricane Irma (2017)"
      }
    },
    {
      "type": "Feature",
      "geometry": {
        "type": "Point",
        "coordinates": [
          -73.2,
          21.5
        ]
      },
      "properties": {
        "timestamp": "2017-09-08T06:00:00+00:00",
        "status": "HU",
        "max_wind_kt": 135,
        "label": "Hurricane Irma (2017)"
      }
    },
    {
      "type": "Feature",
      "geometry": {
        "type": "Point",
        "coordinates": [
          -74.7,
          21.8
        ]
      },
      "properties": {
        "timestamp": "2017-09-08T12:00:00+00:00",
        "status": "HU",
        "max_wind_kt": 135,
        "label": "Hurricane Irma (2017)"
      }
    },
    {
      "type": "Feature",
      "geometry": {
        "type": "Point",
        "coordinates": [
          -76.0,
          22.0
        ]
      },
      "properties": {
        "timestamp": "2017-09-08T18:00:00+00:00",
        "status": "HU",
        "max_wind_kt": 140,
        "label": "Hurricane Irma (2017)"
      }
    },
    {
      "type": "Feature",
      "geometry": {
        "type": "Point",
        "coordinates": [
          -77.2,
          22.1
        ]
      },
      "properties": {
        "timestamp": "2017-09-09T00:00:00+00:00",
        "status": "HU",
        "max_wind_kt": 145,
        "label": "Hurricane Irma (2017)"
      }
    },
    {
      "type": "Feature",
      "geometry": {
        "type": "Point",
        "coordinates": [
          -77.9,
          22.3
        ]
      },
      "properties": {
        "timestamp": "2017-09-09T03:00:00+00:00",
        "status": "HU",
        "max_wind_kt": 145,
        "label": "Hurricane Irma (2017)"
      }
    },
    {
      "type": "Feature",
      "geometry": {
        "type": "Point",
        "coordinates": [
          -78.3,
          22.4
        ]
      },
      "properties": {
        "timestamp": "2017-09-09T06:00:00+00:00",
        "status": "HU",
        "max_wind_kt": 130,
        "label": "Hurricane Irma (2017)"
      }
    },
    {
      "type": "Feature",
      "geometry": {
        "type": "Point",
        "coordinates": [
          -79.3,
          22.7
        ]
      },
      "properties": {
        "timestamp": "2017-09-09T12:00:00+00:00",
        "status": "HU",
        "max_wind_kt": 110,
        "label": "Hurricane Irma (2017)"
      }
    },
    {
      "type": "Feature",
      "geometry": {
        "type": "Point",
        "coordinates": [
          -80.2,
          23.1
        ]
      },
      "properties": {
        "timestamp": "2017-09-09T18:00:00+00:00",
        "status": "HU",
        "max_wind_kt": 95,
        "label": "Hurricane Irma (2017)"
      }
    },
    {
      "type": "Feature",
      "geometry": {
        "type": "Point",
        "coordinates": [
          -80.9,
          23.4
        ]
      },
      "properties": {
        "timestamp": "2017-09-10T00:00:00+00:00",
        "status": "HU",
        "max_wind_kt": 100,
        "label": "Hurricane Irma (2017)"
      }
    },
    {
      "type": "Feature",
      "geometry": {
        "type": "Point",
        "coordinates": [
          -81.3,
          23.7
        ]
      },
      "properties": {
        "timestamp": "2017-09-10T06:00:00+00:00",
        "status": "HU",
        "max_wind_kt": 115,
        "label": "Hurricane Irma (2017)"
      }
    },
    {
      "type": "Feature",
      "geometry": {
        "type": "Point",
        "coordinates": [
          -81.5,
          24.5
        ]
      },
      "properties": {
        "timestamp": "2017-09-10T12:00:00+00:00",
        "status": "HU",
        "max_wind_kt": 115,
        "label": "Hurricane Irma (2017)"
      }
    },
    {
      "type": "Feature",
      "geometry": {
        "type": "Point",
        "coordinates": [
          -81.5,
          24.7
        ]
      },
      "properties": {
        "timestamp": "2017-09-10T13:00:00+00:00",
        "status": "HU",
        "max_wind_kt": 115,
        "label": "Hurricane Irma (2017)"
      }
    },
    {
      "type": "Feature",
      "geometry": {
        "type": "Point",
        "coordinates": [
          -81.7,
          25.6
        ]
      },
      "properties": {
        "timestamp": "2017-09-10T18:00:00+00:00",
        "status": "HU",
        "max_wind_kt": 100,
        "label": "Hurricane Irma (2017)"
      }
    },
    {
      "type": "Feature",
      "geometry": {
        "type": "Point",
        "coordinates": [
          -81.7,
          25.9
        ]
      },
      "properties": {
        "timestamp": "2017-09-10T19:30:00+00:00",
        "status": "HU",
        "max_wind_kt": 100,
        "label": "Hurricane Irma (2017)"
      }
    },
    {
      "type": "Feature",
      "geometry": {
        "type": "Point",
        "coordinates": [
          -81.7,
          26.8
        ]
      },
      "properties": {
        "timestamp": "2017-09-11T00:00:00+00:00",
        "status": "HU",
        "max_wind_kt": 80,
        "label": "Hurricane Irma (2017)"
      }
    },
    {
      "type": "Feature",
      "geometry": {
        "type": "Point",
        "coordinates": [
          -82.2,
          28.2
        ]
      },
      "properties": {
        "timestamp": "2017-09-11T06:00:00+00:00",
        "status": "HU",
        "max_wind_kt": 65,
        "label": "Hurricane Irma (2017)"
      }
    },
    {
      "type": "Feature",
      "geometry": {
        "type": "Point",
        "coordinates": [
          -82.7,
          29.6
        ]
      },
      "properties": {
        "timestamp": "2017-09-11T12:00:00+00:00",
        "status": "TS",
        "max_wind_kt": 50,
        "label": "Hurricane Irma (2017)"
      }
    },
    {
      "type": "Feature",
      "geometry": {
        "type": "Point",
        "coordinates": [
          -83.5,
          30.9
        ]
      },
      "properties": {
        "timestamp": "2017-09-11T18:00:00+00:00",
        "status": "TS",
        "max_wind_kt": 45,
        "label": "Hurricane Irma (2017)"
      }
    },
    {
      "type": "Feature",
      "geometry": {
        "type": "Point",
        "coordinates": [
          -84.4,
          31.9
        ]
      },
      "properties": {
        "timestamp": "2017-09-12T00:00:00+00:00",
        "status": "TS",
        "max_wind_kt": 35,
        "label": "Hurricane Irma (2017)"
      }
    },
    {
      "type": "Feature",
      "geometry": {
        "type": "Point",
        "coordinates": [
          -85.6,
          32.9
        ]
      },
      "properties": {
        "timestamp": "2017-09-12T06:00:00+00:00",
        "status": "LO",
        "max_wind_kt": 25,
        "label": "Hurricane Irma (2017)"
      }
    },
    {
      "type": "Feature",
      "geometry": {
        "type": "Point",
        "coordinates": [
          -86.9,
          33.8
        ]
      },
      "properties": {
        "timestamp": "2017-09-12T12:00:00+00:00",
        "status": "LO",
        "max_wind_kt": 20,
        "label": "Hurricane Irma (2017)"
      }
    },
    {
      "type": "Feature",
      "geometry": {
        "type": "Point",
        "coordinates": [
          -88.1,
          34.8
        ]
      },
      "properties": {
        "timestamp": "2017-09-12T18:00:00+00:00",
        "status": "LO",
        "max_wind_kt": 15,
        "label": "Hurricane Irma (2017)"
      }
    },
    {
      "type": "Feature",
      "geometry": {
        "type": "Point",
        "coordinates": [
          -88.9,
          35.6
        ]
      },
      "properties": {
        "timestamp": "2017-09-13T00:00:00+00:00",
        "status": "LO",
        "max_wind_kt": 15,
        "label": "Hurricane Irma (2017)"
      }
    },
    {
      "type": "Feature",
      "geometry": {
        "type": "Point",
        "coordinates": [
          -89.5,
          36.2
        ]
      },
      "properties": {
        "timestamp": "2017-09-13T06:00:00+00:00",
        "status": "LO",
        "max_wind_kt": 15,
        "label": "Hurricane Irma (2017)"
      }
    },
    {
      "type": "Feature",
      "geometry": {
        "type": "Point",
        "coordinates": [
          -90.1,
          36.8
        ]
      },
      "properties": {
        "timestamp": "2017-09-13T12:00:00+00:00",
        "status": "LO",
        "max_wind_kt": 15,
        "label": "Hurricane Irma (2017)"
      }
    }
  ]
}