{
  "type": "FeatureCollection",
  "features": [
    {
      "type": "Feature",
      "geometry": {
        "type": "Point",
        "coordinates": [
          -75.1,
          23.1
        ]
      },
      "properties": {
        "timestamp": "2005-08-23T18:00:00+00:00",
        "status": "TD",
        "max_wind_kt": 30,
        "label": "Hurricane Katrina (2005)"
      }
    },
    {
      "type": "Feature",
      "geometry": {
        "type": "Point",
        "coordinates": [
          -75.7,
          23.4
        ]
      },
      "properties": {
        "timestamp": "2005-08-24T00:00:00+00:00",
        "status": "TD",
        "max_wind_kt": 30,
        "label": "Hurricane Katrina (2005)"
      }
    },
    {
      "type": "Feature",
      "geometry": {
        "type": "Point",
        "coordinates": [
          -76.2,
          23.8
        ]
      },
      "properties": {
        "timestamp": "2005-08-24T06:00:00+00:00",
        "status": "TD",
        "max_wind_kt": 30,
        "label": "Hurricane Katrina (2005)"
      }
    },
    {
      "type": "Feature",
      "geometry": {
        "type": "Point",
        "coordinates": [
          -76.5,
          24.5
        ]
      },
      "properties": {
        "timestamp": "2005-08-24T12:00:00+00:00",
        "status": "TS",
        "max_wind_kt": 35,
        "label": "Hurricane Katrina (2005)"
      }
    },
    {
      "type": "Feature",
      "geometry": {
        "type": "Point",
        "coordinates": [
          -76.9,
          25.4
        ]
      },
      "properties": {
        "timestamp": "2005-08-24T18:00:00+00:00",
        "status": "TS",
        "max_wind_kt": 40,
        "label": "Hurricane Katrina (2005)"
      }
    },
    {
      "type": "Feature",
      "geometry": {
        "type": "Point",
        "coordinates": [
          -77.7,
          26.0
        ]
      },
      "properties": {
        "timestamp": "2005-08-25T00:00:00+00:00",
        "status": "TS",
        "max_wind_kt": 45,
        "label": "Hurricane Katrina (2005)"
      }
    },
    {
      "type": "Feature",
      "geometry": {
        "type": "Point",
        "coordinates": [
          -78.4,
          26.1
        ]
      },
      "properties": {
        "timestamp": "2005-08-25T06:00:00+00:00",
        "status": "TS",
        "max_wind_kt": 50,
        "label": "Hurricane Katrina (2005)"
      }
    },
    {
      "type": "Feature",
      "geometry": {
        "type": "Point",
        "coordinates": [
          -79.0,
          26.2
        ]
      },
      "properties": {
        "timestamp": "2005-08-25T12:00:00+00:00",
        "status": "TS",
        "max_wind_kt": 55,
        "label": "Hurricane Katrina (2005)"
      }
    },
    {
      "type": "Feature",
      "geometry": {
        "type": "Point",
        "coordinates": [
          -79.6,
          26.2
        ]
      },
      "properties": {
        "timestamp": "2005-08-25T18:00:00+00:00",
        "status": "TS",
        "max_wind_kt": 60,
        "label": "Hurricane Katrina (2005)"
      }
    },
    {
      "type": "Feature",
      "geometry": {
        "type": "Point",
        "coordinates": [
          -80.1,
          26.0
        ]
      },
      "properties": {
        "timestamp": "2005-08-25T22:30:00+00:00",
        "status": "HU",
        "max_wind_kt": 70,
        "label": "Hurricane Katrina (2005)"
      }
    },
    {
      "type": "Feature",
      "geometry": {
        "type": "Point",
        "coordinates": [
          -80.3,
          25.9
        ]
      },
      "properties": {
        "timestamp": "2005-08-26T00:00:00+00:00",
        "status": "HU",
        "max_wind_kt": 70,
        "label": "Hurricane Katrina (2005)"
      }
    },
    {
      "type": "Feature",
      "geometry": {
        "type": "Point",
        "coordinates": [
          -81.3,
          25.4
        ]
      },
      "properties": {
        "timestamp": "2005-08-26T06:00:00+00:00",
        "status": "HU",
        "max_wind_kt": 65,
        "label": "Hurricane Katrina (2005)"
      }
    },
    {
      "type": "Feature",
      "geometry": {
        "type": "Point",
        "coordinates": [
          -82.0,
          25.1
        ]
      },
      "properties": {
        "timestamp": "2005-08-26T12:00:00+00:00",
        "status": "HU",
        "max_wind_kt": 75,
        "label": "Hurricane Katrina (2005)"
      }
    },
    {
      "type": "Feature",
      "geometry": {
        "type": "Point",
        "coordinates": [
          -82.6,
          24.9
        ]
      },
      "properties": {
        "timestamp": "2005-08-26T18:00:00+00:00",
        "status": "HU",
        "max_wind_kt": 85,
        "label": "Hurricane Katrina (2005)"
      }
    },
    {
      "type": "Feature",
      "geometry": {
        "type": "Point",
        "coordinates": [
          -83.3,
          24.6
        ]
      },
      "properties": {
        "timestamp": "2005-08-27T00:00:00+00:00",
        "status": "HU",
        "max_wind_kt": 90,
        "label": "Hurricane Katrina (2005)"
      }
    },
    {
      "type": "Feature",
      "geometry": {
        "type": "Point",
        "coordinates": [
          -84.0,
          24.4
        ]
      },
      "properties": {
        "timestamp": "2005-08-27T06:00:00+00:00",
        "status": "HU",
        "max_wind_kt": 95,
        "label": "Hurricane Katrina (2005)"
      }
    },
    {
      "type": "Feature",
      "geometry": {
        "type": "Point",
        "coordinates": [
          -84.7,
          24.4
        ]
      },
      "properties": {
        "timestamp": "2005-08-27T12:00:00+00:00",
        "status": "HU",
        "max_wind_kt": 100,
        "label": "Hurricane Katrina (2005)"
      }
    },
    {
      "type": "Feature",
      "geometry": {
        "type": "Point",
        "coordinates": [
          -85.3,
          24.5
        ]
      },
      "properties": {
        "timestamp": "2005-08-27T18:00:00+00:00",
        "status": "HU",
        "max_wind_kt": 100,
        "label": "Hurricane Katrina (2005)"
      }
    },
    {
      "type": "Feature",
      "geometry": {
        "type": "Point",
        "coordinates": [
          -85.9,
          24.8
        ]
      },
      "properties": {
        "timestamp": "2005-08-28T00:00:00+00:00",
        "status": "HU",
        "max_wind_kt": 100,
        "label": "Hurricane Katrina (2005)"
      }
    },
    {
      "type": "Feature",
      "geometry": {
        "type": "Point",
        "coordinates": [
          -86.7,
          25.2
        ]
      },
      "properties": {
        "timestamp": "2005-08-28T06:00:00+00:00",
        "status": "HU",
        "max_wind_kt": 125,
        "label": "Hurricane Katrina (2005)"
      }
    },
    {
      "type": "Feature",
      "geometry": {
        "type": "Point",
        "coordinates": [
          -87.7,
          25.7
        ]
      },
      "properties": {
        "timestamp": "2005-08-28T12:00:00+00:00",
        "status": "HU",
        "max_wind_kt": 145,
        "label": "Hurricane Katrina (2005)"
      }
    },
    {
      "type": "Feature",
      "geometry": {
        "type": "Point",
        "coordinates": [
          -88.6,
          26.3
        ]
      },
      "properties": {
        "timestamp": "2005-08-28T18:00:00+00:00",
        "status": "HU",
        "max_wind_kt": 150,
        "label": "Hurricane Katrina (2005)"
      }
    },
    {
      "type": "Feature",
      "geometry": {
        "type": "Point",
        "coordinates": [
          -89.2,
          27.2
        ]
      },
      "properties": {
        "timestamp": "2005-08-29T00:00:00+00:00",
        "status": "HU",
        "max_wind_kt": 140,
        "label": "Hurricane Katrina (2005)"
      }
    },
    {
      "type": "Feature",
      "geometry": {
        "type": "Point",
        "coordinates": [
          -89.6,
          28.2
        ]
      },
      "properties": {
        "timestamp": "2005-08-29T06:00:00+00:00",
        "status": "HU",
        "max_wind_kt": 125,
        "label": "Hurricane Katrina (2005)"
      }
    },
    {
      "type": "Feature",
      "geometry": {
        "type": "Point",
        "coordinates": [
          -89.6,
          29.3
        ]
      },
      "properties": {
        "timestamp": "2005-08-29T11:10:00+00:00",
        "status": "HU",
        "max_wind_kt": 110,
        "label": "Hurricane Katrina (2005)"
      }
    },
    {
      "type": "Feature",
      "geometry": {
        "type": "Point",
        "coordinates": [
          -89.6,
          29.5
        ]
      },
      "properties": {
        "timestamp": "2005-08-29T12:00:00+00:00",
        "status": "HU",
        "max_wind_kt": 110,
        "label": "Hurricane Katrina (2005)"
      }
    },
    {
      "type": "Feature",
      "geometry": {
        "type": "Point",
        "coordinates": [
          -89.6,
          30.2
        ]
      },
      "properties": {
        "timestamp": "2005-08-29T14:45:00+00:00",
        "status": "HU",
        "max_wind_kt": 105,
        "label": "Hurricane Katrina (2005)"
      }
    },
    {
      "type": "Feature",
      "geometry": {
        "type": "Point",
        "coordinates": [
          -89.6,
          31.1
        ]
      },
      "properties": {
        "timestamp": "2005-08-29T18:00:00+00:00",
        "status": "HU",
        "max_wind_kt": 80,
        "label": "Hurricane Katrina (2005)"
      }
    },
    {
      "type": "Feature",
      "geometry": {
        "type": "Point",
        "coordinates": [
          -89.1,
          32.6
        ]
      },
      "properties": {
        "timestamp": "2005-08-30T00:00:00+00:00",
        "status": "TS",
        "max_wind_kt": 50,
        "label": "Hurricane Katrina (2005)"
      }
    },
    {
      "type": "Feature",
      "geometry": {
        "type": "Point",
        "coordinates": [
          -88.6,
          34.1
        ]
      },
      "properties": {
        "timestamp": "2005-08-30T06:00:00+00:00",
        "status": "TS",
        "max_wind_kt": 40,
        "label": "Hurricane Katrina (2005)"
      }
    },
    {
      "type": "Feature",
      "geometry": {
        "type": "Point",
        "coordinates": [
          -88.0,
          35.6
        ]
      },
      "properties": {
        "timestamp": "2005-08-30T12:00:00+00:00",
        "status": "TD",
        "max_wind_kt": 30,
        "label": "Hurricane Katrina (2005)"
      }
    },
    {
      "type": "Feature",
      "geometry": {
        "type": "Point",
        "coordinates": [
          -87.0,
          37.0
        ]
      },
      "properties": {
        "timestamp": "2005-08-30T18:00:00+00:00",
        "status": "TD",
        "max_wind_kt": 30,
        "label": "Hurricane Katrina (2005)"
      }
    },
    {
      "type": "Feature",
      "geometry": {
        "type": "Point",
        "coordinates": [
          -85.3,
          38.6
        ]
      },
      "properties": {
        "timestamp": "2005-08-31T00:00:00+00:00",
        "status": "EX",
        "max_wind_kt": 30,
        "label": "Hurricane Katrina (2005)"
      }
    },
    {
      "type": "Feature",
      "geometry": {
        "type": "Point",
        "coordinates": [
          -82.9,
          40.1
        ]
      },
      "properties": {
        "timestamp": "2005-08-31T06:00:00+00:00",
        "status": "EX",
        "max_wind_kt": 25,
        "label": "Hurricane Katrina (2005)"
      }
    }
  ]
}