{
  "type": "FeatureCollection",
  "features": [
    {
      "type": "Feature",
      "geometry": {
        "type": "Point",
        "coordinates": [
          -49.7,
          12.2
        ]
      },
      "properties": {
        "timestamp": "2017-09-16T12:00:00+00:00",
        "status": "TD",
        "max_wind_kt": 30,
        "label": "Hurricane Maria (2017)"
      }
    },
    {
      "type": "Feature",
      "geometry": {
        "type": "Point",
        "coordinates": [
          -51.7,
          12.2
        ]
      },
      "properties": {
        "timestamp": "2017-09-16T18:00:00+00:00",
        "status": "TS",
        "max_wind_kt": 40,
        "label": "Hurricane Maria (2017)"
      }
    },
    {
      "type": "Feature",
      "geometry": {
        "type": "Point",
        "coordinates": [
          -53.1,
          12.4
        ]
      },
      "properties": {
        "timestamp": "2017-09-17T00:00:00+00:00",
        "status": "TS",
        "max_wind_kt": 45,
        "label": "Hurricane Maria (2017)"
      }
    },
    {
      "type": "Feature",
      "geometry": {
        "type": "Point",
        "coordinates": [
          -54.4,
          12.8
        ]
      },
      "properties": {
        "timestamp": "2017-09-17T06:00:00+00:00",
        "status": "TS",
        "max_wind_kt": 55,
        "label": "Hurricane Maria (2017)"
      }
    },
    {
      "type": "Feature",
      "geometry": {
        "type": "Point",
        "coordinates": [
          -55.7,
          13.3
        ]
      },
      "properties": {
        "timestamp": "2017-09-17T12:00:00+00:00",
        "status": "TS",
        "max_wind_kt": 60,
        "label": "Hurricane Maria (2017)"
      }
    },
    {
      "type": "Feature",
      "geometry": {
        "type": "Point",
        "coordinates": [
          -57.0,
          13.6
        ]
      },
      "properties": {
        "timestamp": "2017-09-17T18:00:00+00:00",
        "status": "HU",
        "max_wind_kt": 65,
        "label": "Hurricane Maria (2017)"
      }
    },
    {
      "type": "Feature",
      "geometry": {
        "type": "Point",
        "coordinates": [
          -58.0,
          14.0
        ]
      },
      "properties": {
        "timestamp": "2017-09-18T00:00:00+00:00",
        "status": "HU",
        "max_wind_kt": 75,
        "label": "Hurricane Maria (2017)"
      }
    },
    {
      "type": "Feature",
      "geometry": {
        "type": "Point",
        "coordinates": [
          -59.0,
          14.3
        ]
      },
      "properties": {
        "timestamp": "2017-09-18T06:00:00+00:00",
        "status": "HU",
        "max_wind_kt": 80,
        "label": "Hurricane Maria (2017)"
      }
    },
    {
      "type": "Feature",
      "geometry": {
        "type": "Point",
        "coordinates": [
          -59.7,
          14.5
        ]
      },
      "properties": {
        "timestamp": "2017-09-18T12:00:00+00:00",
        "status": "HU",
        "max_wind_kt": 100,
        "label": "Hurricane Maria (2017)"
      }
    },
    {
      "type": "Feature",
      "geometry": {
        "type": "Point",
        "coordinates": [
          -60.4,
          14.9
        ]
      },
      "properties": {
        "timestamp": "2017-09-18T18:00:00+00:00",
        "status": "HU",
        "max_wind_kt": 110,
        "label": "Hurricane Maria (2017)"
      }
    },
    {
      "type": "Feature",
      "geometry": {
        "type": "Point",
        "coordinates": [
          -61.1,
          15.3
        ]
      },
      "properties": {
        "timestamp": "2017-09-19T00:00:00+00:00",
        "status": "HU",
        "max_wind_kt": 145,
        "label": "Hurricane Maria (2017)"
      }
    },
    {
      "type": "Feature",
      "geometry": {
        "type": "Point",
        "coordinates": [
          -61.3,
          15.4
        ]
      },
      "properties": {
        "timestamp": "2017-09-19T01:15:00+00:00",
        "status": "HU",
        "max_wind_kt": 145,
        "label": "Hurricane Maria (2017)"
      }
    },
    {
      "type": "Feature",
      "geometry": {
        "type": "Point",
        "coordinates": [
          -61.9,
          15.7
        ]
      },
      "properties": {
        "timestamp": "2017-09-19T06:00:00+00:00",
        "status": "HU",
        "max_wind_kt": 135,
        "label": "Hurricane Maria (2017)"
      }
    },
    {
      "type": "Feature",
      "geometry": {
        "type": "Point",
        "coordinates": [
          -62.7,
          16.1
        ]
      },
      "properties": {
        "timestamp": "2017-09-19T12:00:00+00:00",
        "status": "HU",
        "max_wind_kt": 140,
        "label": "Hurricane Maria (2017)"
      }
    },
    {
      "type": "Feature",
      "geometry": {
        "type": "Point",
        "coordinates": [
          -63.5,
          16.6
        ]
      },
      "properties": {
        "timestamp": "2017-09-19T18:00:00+00:00",
        "status": "HU",
        "max_wind_kt": 145,
        "label": "Hurricane Maria (2017)"
      }
    },
    {
      "type": "Feature",
      "geometry": {
        "type": "Point",
        "coordinates": [
          -64.3,
          17.0
        ]
      },
      "properties": {
        "timestamp": "2017-09-20T00:00:00+00:00",
        "status": "HU",
        "max_wind_kt": 150,
        "label": "Hurricane Maria (2017)"
      }
    },
    {
      "type": "Feature",
      "geometry": {
        "type": "Point",
        "coordinates": [
          -64.7,
          17.3
        ]
      },
      "properties": {
        "timestamp": "2017-09-20T03:00:00+00:00",
        "status": "HU",
        "max_wind_kt": 150,
        "label": "Hurricane Maria (2017)"
      }
    },
    {
      "type": "Feature",
      "geometry": {
        "type": "Point",
        "coordinates": [
          -65.1,
          17.6
        ]
      },
      "properties": {
        "timestamp": "2017-09-20T06:00:00+00:00",
        "status": "HU",
        "max_wind_kt": 140,
        "label": "Hurricane Maria (2017)"
      }
    },
    {
      "type": "Feature",
      "geometry": {
        "type": "Point",
        "coordinates": [
          -65.9,
          18.0
        ]
      },
      "properties": {
        "timestamp": "2017-09-20T10:15:00+00:00",
        "status": "HU",
        "max_wind_kt": 135,
        "label": "Hurricane Maria (2017)"
      }
    },
    {
      "type": "Feature",
      "geometry": {
        "type": "Point",
        "coordinates": [
          -66.2,
          18.2
        ]
      },
      "properties": {
        "timestamp": "2017-09-20T12:00:00+00:00",
        "status": "HU",
        "max_wind_kt": 115,
        "label": "Hurricane Maria (2017)"
      }
    },
    {
      "type": "Feature",
      "geometry": {
        "type": "Point",
        "coordinates": [
          -67.0,
          18.6
        ]
      },
      "properties": {
        "timestamp": "2017-09-20T18:00:00+00:00",
        "status": "HU",
        "max_wind_kt": 95,
        "label": "Hurricane Maria (2017)"
      }
    },
    {
      "type": "Feature",
      "geometry": {
        "type": "Point",
        "coordinates": [
          -67.6,
          19.0
        ]
      },
      "properties": {
        "timestamp": "2017-09-21T00:00:00+00:00",
        "status": "HU",
        "max_wind_kt": 95,
        "label": "Hurricane Maria (2017)"
      }
    },
    {
      "type": "Feature",
      "geometry": {
        "type": "Point",
        "coordinates": [
          -68.2,
          19.4
        ]
      },
      "properties": {
        "timestamp": "2017-09-21T06:00:00+00:00",
        "status": "HU",
        "max_wind_kt": 100,
        "label": "Hurricane Maria (2017)"
      }
    },
    {
      "type": "Feature",
      "geometry": {
        "type": "Point",
        "coordinates": [
          -68.8,
          19.9
        ]
      },
      "properties": {
        "timestamp": "2017-09-21T12:00:00+00:00",
        "status": "HU",
        "max_wind_kt": 100,
        "label": "Hurricane Maria (2017)"
      }
    },
    {
      "type": "Feature",
      "geometry": {
        "type": "Point",
        "coordinates": [
          -69.5,
          20.5
        ]
      },
      "properties": {
        "timestamp": "2017-09-21T18:00:00+00:00",
        "status": "HU",
        "max_wind_kt": 105,
        "label": "Hurricane Maria (2017)"
      }
    },
    {
      "type": "Feature",
      "geometry": {
        "type": "Point",
        "coordinates": [
          -70.0,
          20.8
        ]
      },
      "properties": {
        "timestamp": "2017-09-22T00:00:00+00:00",
        "status": "HU",
        "max_wind_kt": 110,
        "label": "Hurricane Maria (2017)"
      }
    },
    {
      "type": "Feature",
      "geometry": {
        "type": "Point",
        "coordinates": [
          -70.5,
          21.2
        ]
      },
      "properties": {
        "timestamp": "2017-09-22T06:00:00+00:00",
        "status": "HU",
        "max_wind_kt": 110,
        "label": "Hurricane Maria (2017)"
      }
    },
    {
      "type": "Feature",
      "geometry": {
        "type": "Point",
        "coordinates": [
          -70.9,
          21.9
        ]
      },
      "properties": {
        "timestamp": "2017-09-22T12:00:00+00:00",
        "status": "HU",
        "max_wind_kt": 110,
        "label": "Hurricane Maria (2017)"
      }
    },
    {
      "type": "Feature",
      "geometry": {
        "type": "Point",
        "coordinates": [
          -71.2,
          22.8
        ]
      },
      "properties": {
        "timestamp": "2017-09-22T18:00:00+00:00",
        "status": "HU",
        "max_wind_kt": 110,
        "label": "Hurricane Maria (2017)"
      }
    },
    {
      "type": "Feature",
      "geometry": {
        "type": "Point",
        "coordinates": [
          -71.6,
          23.7
        ]
      },
      "properties": {
        "timestamp": "2017-09-23T00:00:00+00:00",
        "status": "HU",
        "max_wind_kt": 105,
        "label": "Hurricane Maria (2017)"
      }
    },
    {
      "type": "Feature",
      "geometry": {
        "type": "Point",
        "coordinates": [
          -71.9,
          24.4
        ]
      },
      "properties": {
        "timestamp": "2017-09-23T06:00:00+00:00",
        "status": "HU",
        "max_wind_kt": 100,
        "label": "Hurricane Maria (2017)"
      }
    },
    {
      "type": "Feature",
      "geometry": {
        "type": "Point",
        "coordinates": [
          -72.1,
          25.1
        ]
      },
      "properties": {
        "timestamp": "2017-09-23T12:00:00+00:00",
        "status": "HU",
        "max_wind_kt": 100,
        "label": "Hurricane Maria (2017)"
      }
    },
    {
      "type": "Feature",
      "geometry": {
        "type": "Point",
        "coordinates": [
          -72.3,
          25.9
        ]
      },
      "properties": {
        "timestamp": "2017-09-23T18:00:00+00:00",
        "status": "HU",
        "max_wind_kt": 100,
        "label": "Hurricane Maria (2017)"
      }
    },
    {
      "type": "Feature",
      "geometry": {
        "type": "Point",
        "coordinates": [
          -72.4,
          26.6
        ]
      },
      "properties": {
        "timestamp": "2017-09-24T00:00:00+00:00",
        "status": "HU",
        "max_wind_kt": 100,
        "label": "Hurricane Maria (2017)"
      }
    },
    {
      "type": "Feature",
      "geometry": {
        "type": "Point",
        "coordinates": [
          -72.6,
          27.5
        ]
      },
      "properties": {
        "timestamp": "2017-09-24T06:00:00+00:00",
        "status": "HU",
        "max_wind_kt": 95,
        "label": "Hurricane Maria (2017)"
      }
    },
    {
      "type": "Feature",
      "geometry": {
        "type": "Point",
        "coordinates": [
          -72.8,
          28.4
        ]
      },
      "properties": {
        "timestamp": "2017-09-24T12:00:00+00:00",
        "status": "HU",
        "max_wind_kt": 95,
        "label": "Hurricane Maria (2017)"
      }
    },
    {
      "type": "Feature",
      "geometry": {
        "type": "Point",
        "coordinates": [
          -72.9,
          29.1
        ]
      },
      "properties": {
        "timestamp": "2017-09-24T18:00:00+00:00",
        "status": "HU",
        "max_wind_kt": 90,
        "label": "Hurricane Maria (2017)"
      }
    },
    {
      "type": "Feature",
      "geometry": {
        "type": "Point",
        "coordinates": [
          -72.9,
          29.7
        ]
      },
      "properties": {
        "timestamp": "2017-09-25T00:00:00+00:00",
        "status": "HU",
        "max_wind_kt": 85,
        "label": "Hurricane Maria (2017)"
      }
    },
    {
      "type": "Feature",
      "geometry": {
        "type": "Point",
        "coordinates": [
          -72.9,
          30.3
        ]
      },
      "properties": {
        "timestamp": "2017-09-25T06:00:00+00:00",
        "status": "HU",
        "max_wind_kt": 75,
        "label": "Hurricane Maria (2017)"
      }
    },
    {
      "type": "Feature",
      "geometry": {
        "type": "Point",
        "coordinates": [
          -73.0,
          30.8
        ]
      },
      "properties": {
        "timestamp": "2017-09-25T12:00:00+00:00",
        "status": "HU",
        "max_wind_kt": 70,
        "label": "Hurricane Maria (2017)"
      }
    },
    {
      "type": "Feature",
      "geometry": {
        "type": "Point",
        "coordinates": [
          -73.1,
          31.4
        ]
      },
      "properties": {
        "timestamp": "2017-09-25T18:00:00+00:00",
        "status": "HU",
        "max_wind_kt": 70,
        "label": "Hurricane Maria (2017)"
      }
    },
    {
      "type": "Feature",
      "geometry": {
        "type": "Point",
        "coordinates": [
          -73.1,
          32.0
        ]
      },
      "properties": {
        "timestamp": "2017-09-26T00:00:00+00:00",
        "status": "HU",
        "max_wind_kt": 70,
        "label": "Hurricane Maria (2017)"
      }
    },
    {
      "type": "Feature",
      "geometry": {
        "type": "Point",
        "coordinates": [
          -73.1,
          32.6
        ]
      },
      "properties": {
        "timestamp": "2017-09-26T06:00:00+00:00",
        "status": "HU",
        "max_wind_kt": 65,
        "label": "Hurricane Maria (2017)"
      }
    },
    {
      "type": "Feature",
      "geometry": {
        "type": "Point",
        "coordinates": [
          -73.1,
          33.3
        ]
      },
      "properties": {
        "timestamp": "2017-09-26T12:00:00+00:00",
        "status": "HU",
        "max_wind_kt": 65,
        "label": "Hurricane Maria (2017)"
      }
    },
    {
      "type": "Feature",
      "geometry": {
        "type": "Point",
        "coordinates": [
          -73.1,
          33.9
        ]
      },
      "properties": {
        "timestamp": "2017-09-26T18:00:00+00:00",
        "status": "HU",
        "max_wind_kt": 65,
        "label": "Hurricane Maria (2017)"
      }
    },
    {
      "type": "Feature",
      "geometry": {
        "type": "Point",
        "coordinates": [
          -73.0,
          34.4
        ]
      },
      "properties": {
        "timestamp": "2017-09-27T00:00:00+00:00",
        "status": "HU",
        "max_wind_kt": 65,
        "label": "Hurricane Maria (2017)"
      }
    },
    {
      "type": "Feature",
      "geometry": {
        "type": "Point",
        "coordinates": [
          -72.9,
          34.9
        ]
      },
      "properties": {
        "timestamp": "2017-09-27T06:00:00+00:00",
        "status": "HU",
        "max_wind_kt": 65,
        "label": "Hurricane Maria (2017)"
      }
    },
    {
      "type": "Feature",
      "geometry": {
        "type": "Point",
        "coordinates": [
          -72.8,
          35.4
        ]
      },
      "properties": {
        "timestamp": "2017-09-27T12:00:00+00:00",
        "status": "HU",
        "max_wind_kt": 65,
        "label": "Hurricane Maria (2017)"
      }
    },
    {
      "type": "Feature",
      "geometry": {
        "type": "Point",
        "coordinates": [
          -72.6,
          36.0
        ]
      },
      "properties": {
        "timestamp": "2017-09-27T18:00:00+00:00",
        "status": "HU",
        "max_wind_kt": 65,
        "label": "Hurricane Maria (2017)"
      }
    },
    {
      "type": "Feature",
      "geometry": {
        "type": "Point",
        "coordinates": [
          -72.2,
          36.6
        ]
      },
      "properties": {
        "timestamp": "2017-09-28T00:00:00+00:00",
        "status": "HU",
        "max_wind_kt": 65,
        "label": "Hurricane Maria (2017)"
      }
    },
    {
      "type": "Feature",
      "geometry": {
        "type": "Point",
        "coordinates": [
          -71.3,
          36.7
        ]
      },
      "properties": {
        "timestamp": "2017-09-28T06:00:00+00:00",
        "status": "TS",
        "max_wind_kt": 60,
        "label": "Hurricane Maria (2017)"
      }
    },
    {
      "type": "Feature",
      "geometry": {
        "type": "Point",
        "coordinates": [
          -70.0,
          36.8
        ]
      },
      "properties": {
        "timestamp": "2017-09-28T12:00:00+00:00",
        "status": "TS",
        "max_wind_kt": 60,
        "label": "Hurricane Maria (2017)"
      }
    },
    {
      "type": "Feature",
      "geometry": {
        "type": "Point",
        "coordinates": [
          -68.6,
          36.8
        ]
      },
      "properties": {
        "timestamp": "2017-09-28T18:00:00+00:00",
        "status": "TS",
        "max_wind_kt": 55,
        "label": "Hurricane Maria (2017)"
      }
    },
    {
      "type": "Feature",
      "geometry": {
        "type": "Point",
        "coordinates": [
          -66.8,
          36.9
        ]
      },
      "properties": {
        "timestamp": "2017-09-29T00:00:00+00:00",
        "status": "TS",
        "max_wind_kt": 55,
        "label": "Hurricane Maria (2017)"
      }
    },
    {
      "type": "Feature",
      "geometry": {
        "type": "Point",
        "coordinates": [
          -64.6,
          37.0
        ]
      },
      "properties": {
        "timestamp": "2017-09-29T06:00:00+00:00",
        "status": "TS",
        "max_wind_kt": 50,
        "label": "Hurricane Maria (2017)"
      }
    },
    {
      "type": "Feature",
      "geometry": {
        "type": "Point",
        "coordinates": [
          -62.0,
          37.0
        ]
      },
      "properties": {
        "timestamp": "2017-09-29T12:00:00+00:00",
        "status": "TS",
        "max_wind_kt": 50,
        "label": "Hurricane Maria (2017)"
      }
    },
    {
      "type": "Feature",
      "geometry": {
        "type": "Point",
        "coordinates": [
          -59.0,
          37.4
        ]
      },
      "properties": {
        "timestamp": "2017-09-29T18:00:00+00:00",
        "status": "TS",
        "max_wind_kt": 50,
        "label": "Hurricane Maria (2017)"
      }
    },
    {
      "type": "Feature",
      "geometry": {
        "type": "Point",
        "coordinates": [
          -55.6,
          38.1
        ]
      },
      "properties": {
        "timestamp": "2017-09-30T00:00:00+00:00",
        "status": "TS",
        "max_wind_kt": 50,
        "label": "Hurricane Maria (2017)"
      }
    },
    {
      "type": "Feature",
      "geometry": {
        "type": "Point",
        "coordinates": [
          -52.2,
          39.1
        ]
      },
      "properties": {
        "timestamp": "2017-09-30T06:00:00+00:00",
        "status": "TS",
        "max_wind_kt": 50,
        "label": "Hurricane Maria (2017)"
      }
    },
    {
      "type": "Feature",
      "geometry": {
        "type": "Point",
        "coordinates": [
          -48.8,
          40.0
        ]
      },
      "properties": {
        "timestamp": "2017-09-30T12:00:00+00:00",
        "status": "TS",
        "max_wind_kt": 50,
        "label": "Hurricane Maria (2017)"
      }
    },
    {
      "type": "Feature",
      "geometry": {
        "type": "Point",
        "coordinates": [
          -45.6,
          41.2
        ]
      },
      "properties": {
        "timestamp": "2017-09-30T18:00:00+00:00",
        "status": "EX",
        "max_wind_kt": 45,
        "label": "Hurricane Maria (2017)"
      }
    },
    {
      "type": "Feature",
      "geometry": {
        "type": "Point",
        "coordinates": [
          -42.6,
          42.2
        ]
      },
      "properties": {
        "timestamp": "2017-10-01T00:00:00+00:00",
        "status": "EX",
        "max_wind_kt": 45,
        "label": "Hurricane Maria (2017)"
      }
    },
    {
      "type": "Feature",
      "geometry": {
        "type": "Point",
        "coordinates": [
          -39.4,
          43.4
        ]
      },
      "properties": {
        "timestamp": "2017-10-01T06:00:00+00:00",
        "status": "EX",
        "max_wind_kt": 45,
        "label": "Hurricane Maria (2017)"
      }
    },
    {
      "type": "Feature",
      "geometry": {
        "type": "Point",
        "coordinates": [
          -35.5,
          44.9
        ]
      },
      "properties": {
        "timestamp": "2017-10-01T12:00:00+00:00",
        "status": "EX",
        "max_wind_kt": 45,
        "label": "Hurricane Maria (2017)"
      }
    },
    {
      "type": "Feature",
      "geometry": {
        "type": "Point",
        "coordinates": [
          -31.0,
          46.5
        ]
      },
      "properties": {
        "timestamp": "2017-10-01T18:00:00+00:00",
        "status": "EX",
        "max_wind_kt": 45,
        "label": "Hurricane Maria (2017)"
      }
    },
    {
      "type": "Feature",
      "geometry": {
        "type": "Point",
        "coordinates": [
          -26.5,
          47.5
        ]
      },
      "properties": {
        "timestamp": "2017-10-02T00:00:00+00:00",
        "status": "EX",
        "max_wind_kt": 40,
        "label": "Hurricane Maria (2017)"
      }
    },
    {
      "type": "Feature",
      "geometry": {
        "type": "Point",
        "coordinates": [
          -22.0,
          48.0
        ]
      },
      "properties": {
        "timestamp": "2017-10-02T06:00:00+00:00",
        "status": "EX",
        "max_wind_kt": 40,
        "label": "Hurricane Maria (2017)"
      }
    },
    {
      "type": "Feature",
      "geometry": {
        "type": "Point",
        "coordinates": [
          -17.0,
          48.0
        ]
      },
      "properties": {
        "timestamp": "2017-10-02T12:00:00+00:00",
        "status": "EX",
        "max_wind_kt": 30,
        "label": "Hurricane Maria (2017)"
      }
    }
  ]
}