{
  "type": "FeatureCollection",
  "features": [
    {
      "type": "Feature",
      "geometry": {
        "type": "Point",
        "coordinates": [
          -122.4194,
          37.7749
        ]
      },
      "properties": {
        "timestamp": "2026-05-28T12:00:00+00:00"
      }
    },
    {
      "type": "Feature",
      "geometry": {
        "type": "Point",
        "coordinates": [
          -122.4186,
          37.7749
        ]
      },
      "properties": {
        "timestamp": "2026-05-28T12:02:00+00:00"
      }
    },
    {
      "type": "Feature",
      "geometry": {
        "type": "Point",
        "coordinates": [
          -122.4178,
          37.7749
        ]
      },
      "properties": {
        "timestamp": "2026-05-28T12:04:00+00:00"
      }
    },
    {
      "type": "Feature",
      "geometry": {
        "type": "Point",
        "coordinates": [
          -122.417,
          37.7749
        ]
      },
      "properties": {
        "timestamp": "2026-05-28T12:06:00+00:00"
      }
    },
    {
      "type": "Feature",
      "geometry": {
        "type": "Point",
        "coordinates": [
          -122.41619999999999,
          37.7749
        ]
      },
      "properties": {
        "timestamp": "2026-05-28T12:08:00+00:00"
      }
    },
    {
      "type": "Feature",
      "geometry": {
        "type": "Point",
        "coordinates": [
          -122.41539999999999,
          37.7749
        ]
      },
      "properties": {
        "timestamp": "2026-05-28T12:10:00+00:00"
      }
    },
    {
      "type": "Feature",
      "geometry": {
        "type": "Point",
        "coordinates": [
          -122.4146,
          37.7749
        ]
      },
      "properties": {
        "timestamp": "2026-05-28T12:12:00+00:00"
      }
    },
    {
      "type": "Feature",
      "geometry": {
        "type": "Point",
        "coordinates": [
          -122.4138,
          37.7749
        ]
      },
      "properties": {
        "timestamp": "2026-05-28T12:14:00+00:00"
      }
    },
    {
      "type": "Feature",
      "geometry": {
        "type": "Point",
        "coordinates": [
          -122.4194,
          37.7759
        ]
      },
      "properties": {
        "timestamp": "2026-05-28T12:16:00+00:00"
      }
    },
    {
      "type": "Feature",
      "geometry": {
        "type": "Point",
        "coordinates": [
          -122.4186,
          37.7759
        ]
      },
      "properties": {
        "timestamp": "2026-05-28T12:18:00+00:00"
      }
    },
    {
      "type": "Feature",
      "geometry": {
        "type": "Point",
        "coordinates": [
          -122.4178,
          37.7759
        ]
      },
      "properties": {
        "timestamp": "2026-05-28T12:20:00+00:00"
      }
    },
    {
      "type": "Feature",
      "geometry": {
        "type": "Point",
        "coordinates": [
          -122.417,
          37.7759
        ]
      },
      "properties": {
        "timestamp": "2026-05-28T12:22:00+00:00"
      }
    },
    {
      "type": "Feature",
      "geometry": {
        "type": "Point",
        "coordinates": [
          -122.41619999999999,
          37.7759
        ]
      },
      "properties": {
        "timestamp": "2026-05-28T12:24:00+00:00"
      }
    },
    {
      "type": "Feature",
      "geometry": {
        "type": "Point",
        "coordinates": [
          -122.41539999999999,
          37.7759
        ]
      },
      "properties": {
        "timestamp": "2026-05-28T12:26:00+00:00"
      }
    },
    {
      "type": "Feature",
      "geometry": {
        "type": "Point",
        "coordinates": [
          -122.4146,
          37.7759
        ]
      },
      "properties": {
        "timestamp": "2026-05-28T12:28:00+00:00"
      }
    },
    {
      "type": "Feature",
      "geometry": {
        "type": "Point",
        "coordinates": [
          -122.4138,
          37.7759
        ]
      },
      "properties": {
        "timestamp": "2026-05-28T12:30:00+00:00"
      }
    },
    {
      "type": "Feature",
      "geometry": {
        "type": "Point",
        "coordinates": [
          -122.4194,
          37.776900000000005
        ]
      },
      "properties": {
        "timestamp": "2026-05-28T12:32:00+00:00"
      }
    },
    {
      "type": "Feature",
      "geometry": {
        "type": "Point",
        "coordinates": [
          -122.4186,
          37.776900000000005
        ]
      },
      "properties": {
        "timestamp": "2026-05-28T12:34:00+00:00"
      }
    },
    {
      "type": "Feature",
      "geometry": {
        "type": "Point",
        "coordinates": [
          -122.4178,
          37.776900000000005
        ]
      },
      "properties": {
        "timestamp": "2026-05-28T12:36:00+00:00"
      }
    },
    {
      "type": "Feature",
      "geometry": {
        "type": "Point",
        "coordinates": [
          -122.417,
          37.776900000000005
        ]
      },
      "properties": {
        "timestamp": "2026-05-28T12:38:00+00:00"
      }
    },
    {
      "type": "Feature",
      "geometry": {
        "type": "Point",
        "coordinates": [
          -122.41619999999999,
          37.776900000000005
        ]
      },
      "properties": {
        "timestamp": "2026-05-28T12:40:00+00:00"
      }
    },
    {
      "type": "Feature",
      "geometry": {
        "type": "Point",
        "coordinates": [
          -122.41539999999999,
          37.776900000000005
        ]
      },
      "properties": {
        "timestamp": "2026-05-28T12:42:00+00:00"
      }
    },
    {
      "type": "Feature",
      "geometry": {
        "type": "Point",
        "coordinates": [
          -122.4146,
          37.776900000000005
        ]
      },
      "properties": {
        "timestamp": "2026-05-28T12:44:00+00:00"
      }
    },
    {
      "type": "Feature",
      "geometry": {
        "type": "Point",
        "coordinates": [
          -122.4138,
          37.776900000000005
        ]
      },
      "properties": {
        "timestamp": "2026-05-28T12:46:00+00:00"
      }
    },
    {
      "type": "Feature",
      "geometry": {
        "type": "Point",
        "coordinates": [
          -122.4194,
          37.7779
        ]
      },
      "properties": {
        "timestamp": "2026-05-28T12:48:00+00:00"
      }
    },
    {
      "type": "Feature",
      "geometry": {
        "type": "Point",
        "coordinates": [
          -122.4186,
          37.7779
        ]
      },
      "properties": {
        "timestamp": "2026-05-28T12:50:00+00:00"
      }
    },
    {
      "type": "Feature",
      "geometry": {
        "type": "Point",
        "coordinates": [
          -122.4178,
          37.7779
        ]
      },
      "properties": {
        "timestamp": "2026-05-28T12:52:00+00:00"
      }
    },
    {
      "type": "Feature",
      "geometry": {
        "type": "Point",
        "coordinates": [
          -122.417,
          37.7779
        ]
      },
      "properties": {
        "timestamp": "2026-05-28T12:54:00+00:00"
      }
    },
    {
      "type": "Feature",
      "geometry": {
        "type": "Point",
        "coordinates": [
          -122.41619999999999,
          37.7779
        ]
      },
      "properties": {
        "timestamp": "2026-05-28T12:56:00+00:00"
      }
    },
    {
      "type": "Feature",
      "geometry": {
        "type": "Point",
        "coordinates": [
          -122.41539999999999,
          37.7779
        ]
      },
      "properties": {
        "timestamp": "2026-05-28T12:58:00+00:00"
      }
    },
    {
      "type": "Feature",
      "geometry": {
        "type": "Point",
        "coordinates": [
          -122.4146,
          37.7779
        ]
      },
      "properties": {
        "timestamp": "2026-05-28T13:00:00+00:00"
      }
    },
    {
      "type": "Feature",
      "geometry": {
        "type": "Point",
        "coordinates": [
          -122.4138,
          37.7779
        ]
      },
      "properties": {
        "timestamp": "2026-05-28T13:02:00+00:00"
      }
    },
    {
      "type": "Feature",
      "geometry": {
        "type": "Point",
        "coordinates": [
          -122.4194,
          37.7789
        ]
      },
      "properties": {
        "timestamp": "2026-05-28T13:04:00+00:00"
      }
    },
    {
      "type": "Feature",
      "geometry": {
        "type": "Point",
        "coordinates": [
          -122.4186,
          37.7789
        ]
      },
      "properties": {
        "timestamp": "2026-05-28T13:06:00+00:00"
      }
    },
    {
      "type": "Feature",
      "geometry": {
        "type": "Point",
        "coordinates": [
          -122.4178,
          37.7789
        ]
      },
      "properties": {
        "timestamp": "2026-05-28T13:08:00+00:00"
      }
    },
    {
      "type": "Feature",
      "geometry": {
        "type": "Point",
        "coordinates": [
          -122.417,
          37.7789
        ]
      },
      "properties": {
        "timestamp": "2026-05-28T13:10:00+00:00"
      }
    },
    {
      "type": "Feature",
      "geometry": {
        "type": "Point",
        "coordinates": [
          -122.41619999999999,
          37.7789
        ]
      },
      "properties": {
        "timestamp": "2026-05-28T13:12:00+00:00"
      }
    },
    {
      "type": "Feature",
      "geometry": {
        "type": "Point",
        "coordinates": [
          -122.41539999999999,
          37.7789
        ]
      },
      "properties": {
        "timestamp": "2026-05-28T13:14:00+00:00"
      }
    },
    {
      "type": "Feature",
      "geometry": {
        "type": "Point",
        "coordinates": [
          -122.4146,
          37.7789
        ]
      },
      "properties": {
        "timestamp": "2026-05-28T13:16:00+00:00"
      }
    },
    {
      "type": "Feature",
      "geometry": {
        "type": "Point",
        "coordinates": [
          -122.4138,
          37.7789
        ]
      },
      "properties": {
        "timestamp": "2026-05-28T13:18:00+00:00"
      }
    },
    {
      "type": "Feature",
      "geometry": {
        "type": "Point",
        "coordinates": [
          -122.4194,
          37.779900000000005
        ]
      },
      "properties": {
        "timestamp": "2026-05-28T13:20:00+00:00"
      }
    },
    {
      "type": "Feature",
      "geometry": {
        "type": "Point",
        "coordinates": [
          -122.4186,
          37.779900000000005
        ]
      },
      "properties": {
        "timestamp": "2026-05-28T13:22:00+00:00"
      }
    },
    {
      "type": "Feature",
      "geometry": {
        "type": "Point",
        "coordinates": [
          -122.4178,
          37.779900000000005
        ]
      },
      "properties": {
        "timestamp": "2026-05-28T13:24:00+00:00"
      }
    },
    {
      "type": "Feature",
      "geometry": {
        "type": "Point",
        "coordinates": [
          -122.417,
          37.779900000000005
        ]
      },
      "properties": {
        "timestamp": "2026-05-28T13:26:00+00:00"
      }
    },
    {
      "type": "Feature",
      "geometry": {
        "type": "Point",
        "coordinates": [
          -122.41619999999999,
          37.779900000000005
        ]
      },
      "properties": {
        "timestamp": "2026-05-28T13:28:00+00:00"
      }
    },
    {
      "type": "Feature",
      "geometry": {
        "type": "Point",
        "coordinates": [
          -122.41539999999999,
          37.779900000000005
        ]
      },
      "properties": {
        "timestamp": "2026-05-28T13:30:00+00:00"
      }
    },
    {
      "type": "Feature",
      "geometry": {
        "type": "Point",
        "coordinates": [
          -122.4146,
          37.779900000000005
        ]
      },
      "properties": {
        "timestamp": "2026-05-28T13:32:00+00:00"
      }
    },
    {
      "type": "Feature",
      "geometry": {
        "type": "Point",
        "coordinates": [
          -122.4138,
          37.779900000000005
        ]
      },
      "properties": {
        "timestamp": "2026-05-28T13:34:00+00:00"
      }
    },
    {
      "type": "Feature",
      "geometry": {
        "type": "Point",
        "coordinates": [
          -122.4194,
          37.7809
        ]
      },
      "properties": {
        "timestamp": "2026-05-28T13:36:00+00:00"
      }
    },
    {
      "type": "Feature",
      "geometry": {
        "type": "Point",
        "coordinates": [
          -122.4186,
          37.7809
        ]
      },
      "properties": {
        "timestamp": "2026-05-28T13:38:00+00:00"
      }
    },
    {
      "type": "Feature",
      "geometry": {
        "type": "Point",
        "coordinates": [
          -122.4178,
          37.7809
        ]
      },
      "properties": {
        "timestamp": "2026-05-28T13:40:00+00:00"
      }
    },
    {
      "type": "Feature",
      "geometry": {
        "type": "Point",
        "coordinates": [
          -122.417,
          37.7809
        ]
      },
      "properties": {
        "timestamp": "2026-05-28T13:42:00+00:00"
      }
    },
    {
      "type": "Feature",
      "geometry": {
        "type": "Point",
        "coordinates": [
          -122.41619999999999,
          37.7809
        ]
      },
      "properties": {
        "timestamp": "2026-05-28T13:44:00+00:00"
      }
    },
    {
      "type": "Feature",
      "geometry": {
        "type": "Point",
        "coordinates": [
          -122.41539999999999,
          37.7809
        ]
      },
      "properties": {
        "timestamp": "2026-05-28T13:46:00+00:00"
      }
    },
    {
      "type": "Feature",
      "geometry": {
        "type": "Point",
        "coordinates": [
          -122.4146,
          37.7809
        ]
      },
      "properties": {
        "timestamp": "2026-05-28T13:48:00+00:00"
      }
    },
    {
      "type": "Feature",
      "geometry": {
        "type": "Point",
        "coordinates": [
          -122.4138,
          37.7809
        ]
      },
      "properties": {
        "timestamp": "2026-05-28T13:50:00+00:00"
      }
    },
    {
      "type": "Feature",
      "geometry": {
        "type": "Point",
        "coordinates": [
          -122.4194,
          37.7819
        ]
      },
      "properties": {
        "timestamp": "2026-05-28T13:52:00+00:00"
      }
    },
    {
      "type": "Feature",
      "geometry": {
        "type": "Point",
        "coordinates": [
          -122.4186,
          37.7819
        ]
      },
      "properties": {
        "timestamp": "2026-05-28T13:54:00+00:00"
      }
    },
    {
      "type": "Feature",
      "geometry": {
        "type": "Point",
        "coordinates": [
          -122.4178,
          37.7819
        ]
      },
      "properties": {
        "timestamp": "2026-05-28T13:56:00+00:00"
      }
    },
    {
      "type": "Feature",
      "geometry": {
        "type": "Point",
        "coordinates": [
          -122.417,
          37.7819
        ]
      },
      "properties": {
        "timestamp": "2026-05-28T13:58:00+00:00"
      }
    }
  ]
}